number,country,city,location,address,latitude,longitude
1,Africa de Sud,Pretoria,Ambasadă,"877 Justice Mahomed str.  Brooklyn, Pretoria 0181",-25.7670768,28.23457711
2,Africa de Sud,Cape Town,Consulat General,"Helderberg House, 24 Highwick  Drive, Kemilworth, 7708, Cape Town",-33.99158102,18.46131738
3,Republica Albania,Tirana,Ambasadă,"str. e Elbasanit, nr.303, Sauk, cod poștal 1044, Tirana",41.30640544,19.84202563
4,Algeria,Alger,Ambasadă,"24, rue Abri Arezki, Hydra, cod poștal 16035, Alger",36.74566941,3.03825429
5,Angola,Luanda,Ambasadă,"Rua Ramalho Ortigão, nr. 30, Bairro Alvalade, Luanda",-8.82912736,13.2355348
6,Regatul Arabiei Saudite,Riyadh,Ambasadă,"Amin al Rihany, building no  2747, villa no 8, zip code 12273",24.7421333,46.66582325
7,Argentina,Buenos Aires,Ambasadă,"Calle Arroyo, nr. 962-970, cod poștal 1007AAD, Orașul Autonom Buenos Aires",-34.59170935,-58.38094083
8,Armenia,Erevan,Ambasadă,"Strada Barbusse, nr. 15, cartier  Arabkir, cod poștal  0028, Erevan",40.1972727,44.48660739
9,Australia,Canberra,Ambasadă,"4 Dalman Crescent, O`Malley,  Act, 2606",-35.35025747,149.10869301
10,Australia,Melbourne,Oficiu Consular,"Suite 10.01 A, etaj 10, 5 Queens Road, Melbourne 3004 Victoria",-37.83699614,144.97402879
11,Australia,Adelaide,Altele,"32/34 Rosa St, Goodwood  5034  South Australia",-34.9511785,138.5913043
12,Australia,Perth,Altele,"8 Clive Street, West Perth 6005,  Western Australia",-31.9468215,115.8422594
13,Noua Zeelandă,Auckland,Altele,"Etaj 16, 56 Wakefield Street,  Auckland CBD, Auckland 1010",-36.85421309,174.76549414
14,Australia,Sydney,Consulat General,"Suite 4, GF/83 York Street, Sydney, NSW, 2000",-33.86947544,151.20584367
15,Australia,Surfers Paradise,Altele,"Suite 1, 66 Appel Street, Surfers Paradise,QLD, 4217",-28.00435317,153.42814779
16,Austria,Viena,Ambasadă,"Prinz Eugen Strasse 60, 1040, Viena",48.19081421,16.37963719
17,Austria,Viena,Ambasadă,"Prinz Eugen Strasse 60, 1040, Viena",48.19081421,16.37963719
18,Austria,Viena,Secție Consulară,"Theresianumgasse 25, 1040, Viena",48.19155183,16.37377812
19,Austria,Viena,Institut cultural român,"Argentinierstrasse 39, 1040, Viena",48.19184358,16.37497311
20,Austria,Viena,Institut cultural român,"Argentinierstrasse 39, 1040, Viena",48.19184358,16.37497311
21,Austria,Viena,Altele,"Gasometer Spielraum - Guglgasse 8/Gasometer B,  Spielraum, etajul 1, 1110, Viena",48.18552556,16.41946987
22,Austria,Eisenstadt,Altele,"Hotel Galantha - Esterhazyplatz 3, 7000, Eisenstadt",47.84522683,16.51905163
23,Austria,Graz,Altele,"Hotel Europa Graz -  Bahnhofgürtel 89, 8020, Graz",47.0719706,15.4194363
24,Austria,Graz,Altele,"Hotel Europa Graz -  Bahnhofgürtel 89, 8020, Graz",47.0719706,15.4194363
25,Austria,Sankt Pölten,Altele,"Landhausplatz 1, Haus 17A, sala 17A.E01, 3100, Sankt Pölten",48.2021012,15.63325645
26,Austria,Salzburg,Consulat General,"Rudolfskai 50, 5020 Salzburg",47.79793361,13.05214825
27,Austria,Salzburg,Consulat General,"Rudolfskai 50, 5020 Salzburg",47.79793361,13.05214825
28,Austria,Bregenz,Altele,"Hotel Messmer,  Kornmarktstraße 16, 6900 Bregenz",47.50472394,9.74848162
29,Austria,Innsbruck,Altele,"Novum Innsbruck Mitte,  Amraser Straße 31, 6020 Innsbruck",47.2630012,11.410661
30,Austria,Klagenfurt,Altele,"Bahnstraße 89, 9020 Klagenfurt",46.6151988,14.3058338
31,Austria,Linz,Altele,"Bischöfliches Priesterseminar der Diözese Linz, Harrachstraße 7, 4020 Linz",48.30289369,14.29256843
32,Austria,Linz,Altele,"Bischöfliches Priesterseminar der Diözese Linz, Harrachstraße 7, 4020 Linz",48.30289369,14.29256843
33,Azerbaidjan,Baku,Ambasadă,"B-dul Akad. Hasan Aliyev, nr.  125 A (Narimanov), cod AZ1110, Baku",40.40388358,49.85501575
34,Republica Belarus,Minsk,Ambasadă,"Kaliningradski pereulok nr. 12, cod 220012, Minsk",53.92717554,27.59896704
35,Belgia,Bruxelles,Ambasadă,"Rue Gabrielle 105, 1180 Uccle",50.8125726,4.35993614
36,Belgia,Bruxelles,Secție Consulară,"Avenue de Cortenbergh 71, 1000 Bruxelles",50.8444557,4.3889944
37,Belgia,Bruxelles,Secție Consulară,"Avenue de Cortenbergh 71, 1000 Bruxelles",50.8444557,4.3889944
38,Belgia,Bruxelles,Reprezentanță Permanentă,"Avenue de Cortenbergh nr. 107, 1000 Bruxelles",50.8435713,4.386602
39,Belgia,Bruxelles,Institut cultural român,"Rue Gabrielle 107, 1180 Uccle",50.8122918,4.3599218
40,Belgia,Bruxelles,Altele,"Tour & Taxis - Rue Picard 7, Gare Maritime, 1000 Bruxelles",50.8644464,4.34537162
41,Belgia,Bruxelles,Altele,"Tour & Taxis - Rue Picard 7, Gare Maritime, 1000 Bruxelles",50.8644464,4.34537162
42,Belgia,Bruxelles,Altele,"Tour & Taxis - Rue Picard 7, Gare Maritime, 1000 Bruxelles",50.8644464,4.34537162
43,Belgia,Bruxelles,Altele,"Tour & Taxis - Rue Picard 7, Gare Maritime, 1000 Bruxelles",50.86444531,4.34547288
44,Belgia,Bruxelles,Altele,"Rue Saint-Francois 63, 1210 Saint-Josse-ten-Noode",50.8565241,4.365537
45,Belgia,Bruxelles,Altele,"Rue Saint-Francois 63, 1210 Saint-Josse-ten-Noode",50.8565241,4.365537
46,Belgia,Antwerpen,Altele,"Blue Point Antwerpen, Filip  Williotstraat 9, 2600 Antwerpen",50.85112278,4.40188951
47,Belgia,Antwerpen,Altele,"Blue Point Antwerpen, Filip  Williotstraat 9, 2600 Antwerpen",50.85112278,4.40188951
48,Belgia,Arlon,Altele,"Rue du Musee 10, 6700 Arlon",49.68518345,5.81164827
49,Belgia,Bruges,Altele,"Zeebrugge, Marktplein 12, 8380 Brugge",51.3312554,3.21081679
50,Belgia,Bruges,Altele,"Zeebrugge, Marktplein 12, 8380 Brugge",51.33139015,3.21071931
51,Belgia,Charleroi,Altele,"Centre Espace Meeting  Charleroi (CEME), Rue des Francais 147, 6020",50.42282762,4.43288863
52,Belgia,Geel,Altele,"Stelen 77, 2440 Geel",51.12601502,4.97087495
53,Belgia,Ghent,Altele,"Kinepolis Gent, Ter Platen 12, 9000 Ghent",51.04054742,3.72997753
54,Belgia,Hasselt,Altele,"Het Volkstehuis, Kempische Kaai 11, 3500 Hasselt",50.93514375,5.33836222
55,Belgia,Liège,Altele,"Palais de Congres de Liege,  Esplanade de lEurope 2/B, 4020 Liege",50.63080051,5.5741951
56,Belgia,Liège,Altele,"Palais de Congres de Liege,  Esplanade de lEurope 2/B, 4020 Liege",50.63059672,5.57425102
57,Belgia,Mons,Altele,"Lotto Mons Expo, Avenue  Thomas Edison 2, 7000 Mons",50.4581637,3.93748904
58,Belgia,Namur,Altele,"Auditorium Berthe Pouleur,  Avenue Jean Materne 162, 5100 Namur",50.4558104,4.8726032
59,Belgia,Roeselare,Altele,"Onze-Lieve-Vrouwemarkt 24, 8800 Roeselare",50.9475786,3.1349379
60,Belgia,Roeselare,Altele,"Onze-Lieve-Vrouwemarkt 24, 8800 Roeselare",50.9475786,3.1349379
61,Belgia,Sint-Niklaas,Altele,"Stationsplein 29c, 9100 SintNiklaas",51.17068577,4.14401032
62,Belgia,Turnhout,Altele,"Campus Blairon 200, 2300 Turnhout",51.3159617,4.9298137
63,Belgia,Turnhout,Altele,"Campus Blairon 200, 2300 Turnhout",51.3159617,4.9298137
64,Bosnia și Herțegovina,Sarajevo,Ambasadă,"Čobanija 28, 71000, Sarajevo",43.8536274,18.42138006
65,Brazilia ,Brasilia,Ambasadă,"SEN 6 - Asa Norte, Avenida das  Nações, Quadra 801 Lote 06,  Brasília DF, cod poștal 70.800917",-15.78746526,-47.86609045
66,Brazilia ,Chapeco,Altele,Avenida fernando machado 574  E- Centro cod postal 89814210 Chapeco,-27.11038307,-52.61503758
67,Brazilia ,Rio de Janeiro,Consulat General,"Rua Cosme Velho, nr. 526, Rio de Janeiro, 22241-090",-22.94010093,-43.19870742
68,Brazilia ,São Paulo,Altele,"Rua São Carlos do Pinhal, nr. 200, São Paulo, 01333-000",-23.56501723,-46.64952916
69,Bulgaria,Sofia,Ambasadă,"Bd. Mihai Eminescu nr. 4, Sofia, cod poștal 1111",42.68514093,23.35188131
70,Canada,Ottawa,Ambasadă,"655 Rideau Street, Ottawa, ON, cod poștal K1N 6A3",45.43392866,-75.67386136
71,Canada,Calgary,Altele,"17 Millrise Dr. SW, Calgary, AB, cod poștal T2Y 0K7",50.9164727,-114.07291427
72,Canada,Moncton,Altele,"20 Mountain Road, Moncton,  NB cod poștal E1C 2J8",46.09401368,-64.77477691
73,Canada,Quebec,Altele,"90 boul. des Etudiants, Quebec,  QC, cod poștal G2A 1N5",46.85580671,-71.36146245
74,Canada,Toronto,Consulat General,"789 Don Mills Rd., North York,  provincia Ontario, cod poștal M3C 1T5",43.71860696,-79.3375942
75,Canada,Hamilton,Altele,"20 Murray St. W., Hamilton,  provincia Ontario, cod poștal L8L 1B2",43.26550001,-79.86620102
76,Canada,Kitchener,Altele,"2188 Shirley Dr., Kitchener,  provincia Ontario, cod poștal N2B 0A6",43.47663479,-80.43627447
77,Canada,Windsor,Altele,"1960 Tecumseh Rd. E., Windsor,  provincia Ontario, cod poștal  N8W 1E1",42.30178449,-82.99873197
78,Canada,Winnipeg,Altele,"103 Furby St., Winnipeg,  provincia Manitoba, cod poștal R3C 2A4",49.88199137,-97.15791732
79,Canada,Montreal,Consulat General,"1010 Rue Sherbrooke Ouest,et.6,  #610, c.p.h3a 2r7",45.50199966,-73.57536905
80,Canada,Montreal,Altele,"1010 Rue Sherbrooke Ouest, et.15. #1516, c.p. h3a 2r7 (sala evenimente)",45.50216543,-73.5757552
81,Canada,Vancouver,Consulat General,"1165-555 Burrard Street, Vancouver, BC, V7X 1M8",49.28637202,-123.11900831
82,Canada,Edmonton,Altele,"9005 - 132 Avenue NW,  Edmonton AB, T5E 0Y1",53.59185566,-113.48023179
83,Republica Cehă,Praga,Ambasadă,"Strada Nerudova nr. 5, 118 00, Mala Strana, Praga 1",50.08850482,14.40093461
84,Republica Cehă,Praga,Ambasadă,"Strada Nerudova nr. 5, 118 00, Mala Strana, Praga 1",50.08850482,14.40093461
85,Republica Cehă,Praga,Ambasadă,"Strada Tržiště, nr. 20a, 118 00, Mala Strana, Praga 1",50.08850482,14.40093461
86,Republica Chile,Santiago de Chile,Ambasadă,"Santiago de Chile, Benjamin  2955, Las Condes, Regiunea  Metropolitana, cod poștal  7550032",-33.41270307,-70.60066305
87,Republica Populară Chineză,Beijing,Ambasadă,"Str. Ritan Lu Dong Yi Jie,  Districtul Chaoyang, cod poștal  100600, Beijing",39.91589442,116.44710258
88,Republica Populară Chineză,Hong Kong,Consulat General,"03A Unit, 21 Floor, 148 Electric  Road, North Point, Hong Kong",22.28644324,114.19175017
89,Republica Populară Chineză,Shanghai,Consulat General,"502 Room, Honi International  Plaza, 199 Chengdu North Road,  Jing An District, Shanghai,  200041",31.22741486,121.46679604
90,Republica Cipru,Nicosia,Ambasadă,"27 Pireos street, 2023 Strovolos  Nicosia",35.14745139,33.35262992
91,Republica Cipru,Nicosia,Secție Consulară,"128 - 130 Lemessos Avenue,  2015, Strovolos Nicosia",35.1432706,33.37381678
92,Republica Cipru,Larnaca,Altele,"Chamit Mpei street, 6045 Larnaca",34.92298003,33.61876469
93,Republica Cipru,Limassol,Altele,"Lophitis Business Center, 28 October Avenue 249-I, Ground floor, 3035 Limassol",34.67891096,33.05134527
94,Republica Cipru,Pafos,Altele,"Teatrul Attikon, Evagora  Pallikaridi street, cod poștal  8010, Pafos, Cipru",34.77677832,32.42263951
95,Republica Cipru,Poli Chrysochous,Altele,"Centrul Cultural, 15 Asinoi, street, cod poștal 8820, Poli Crysochous, Cipru",35.03437391,32.42401722
96,Republica Cipru,Agros,Altele,"Școala Gimnazială Apeitou, 44  Kyriacou Apeitou str., 4860 Agros",34.91633059,33.01443775
97,Republica Cipru,Deryneia,Altele,"Cultural Center, 35 Evagorou  str., 5385 Deryneia",35.06765148,33.95895006
98,R.Columbia,Bogota,Ambasadă,"Carrera 7 Nr. 92A-58, Chico, Bogota",4.67231943,-74.04309535
99,Republica Coreea,Seoul,Ambasadă,"50 Jangmun-ro, Yongsan-gu,  Seoul, 04393",37.52703783,126.99535251
100,Republica Croația,Zagreb,Ambasadă,"Mlinarska cesta 43, 10000",45.82779483,15.97750187
101,Cuba,Havana,Ambasadă,"Ave. 5ta A, no. 4407 e/44 y 46, Miramar, Playa, La Habana",23.11380265,-82.43079606
102,Danemarca,Copenhaga,Altele,"Institut français du Danemark,  Rolighedsvej 37, 1958  Frederiksberg C, Copenhagen",55.68427396,12.54469725
103,Danemarca,Copenhaga,Altele,"Institut français du Danemark,  Rolighedsvej 37, 1958  Frederiksberg C, Copenhagen",55.68429609,12.54456637
104,Danemarca,Taastrup,Altele,"3F Høje-Taastrup, Pile Allé 18- 20, 2630 Taastrup",55.64735017,12.29583957
105,Danemarca,Lyngby,Altele,"3F Mølleåen, Firskovvej 5, 2800  Kongens Lyngby",55.77156531,12.51314349
106,Danemarca,Ringsted,Altele,"3F Midt & Østsjælland, Vibevej  12, 4100 Ringsted",55.44186553,11.80176936
107,Danemarca,Odense,Altele,"Hotel Knudsens Gaard, Hunderupgade 2, 5230 Odense M",55.38142063,10.39458547
108,Danemarca,Aabenraa,Altele,"Kirsebærhavens  Aktivitetscenter- Brugerrådet,  Kallemosen 58, 6200 Aabenraa",55.02971618,9.40978699
109,Danemarca,Esbjerg,Altele,"Fødevareforbundet NNF  Sydjylland- Esbjerg, Borgergade  2-4 6700, Esbjerg",55.46199618,8.45178271
110,Danemarca,Vejle,Altele,"3F Vejle, Sjællandsgade 30,  7100 Vejle",55.70405275,9.5440994
111,Danemarca,Ringkøbing,Altele,"3F Ringkøbing-Skjern, Byskellet  33, 6950 Ringkøbing",56.08954639,8.2588413
112,Danemarca,Aarhus,Altele,"3F Aarhus Rymarken, Rymarken  4, 8210 Aarhus",56.16795721,10.152871
113,Danemarca,Skive,Altele,"Frivilligcenter,  Søndergade 16C, 7800 Skive",56.56164558,9.02596655
114,Danemarca,Aalborg,Altele,"3F Aalborg, Hadsundvej 184,  9000 Aalborg",57.02466748,9.96012515
115,Danemarca,Herning,Altele,"3F Midtjylland, Birk Centerpark  4, 7400 Herning",56.1329238,9.02170258
117,Egipt,Cairo,Ambasadă,"6 Al Kamel Mohammed, Al Gabalayah, Zamalek, Cairo, cod poștal 4270122",30.05883094,31.21905063
118,Elveția,Geneva,Misiune Permanentă,"Rue Vermont 37 - 39, 1202 Geneva",46.21884886,6.13717779
119,Elveția,Cologny,Misiune Permanentă,"Chemin de la Perriere 6, 1223 Cologny",46.22705424,6.18639097
120,Elveția,Berna,Altele,"Parohia ortodoxă română Sf. M.  Mc. Gheorghe, Kastellweg 7,  3004 Bern",46.9738857,7.45097607
121,Elveția,Basel,Altele,"Stellwerk, Vogesenplatz 1, 4056 Basel",47.5702119,7.57270264
122,Elveția,Bellinzona,Altele,"Spazio Aperto, Via Gerretta 9a, 6500 Bellinzona",47.55294432,7.59178145
123,Elveția,Lausanne,Altele,"IBIS Lausanne Crissier, Chem. de l`Esparcette 4, 1023 Lausanne",46.20109617,9.03029269
124,Elveția,Zürich,Altele,"Radisson Blu Hotel,  Rondellstrasse, 8058 Zürich Airport",47.45265637,8.56412605
125,Elveția,Zürich,Altele,"Hilton Garden Inn Zürich  Limmattal, Kreuzäckerstrasse 5,  8957 Spreitenbach",47.41784786,8.37781957
126,Emiratele Arabe Unite,Abu Dhabi,Ambasadă,"Abu Al Abyad Street, Villa nr.  15, Al Bateen area, cod poștal  70416, Abu Dhabi",24.46053276,54.34863438
127,Emiratele Arabe Unite,Dubai,Consulat General,"Al Safa 2, str. 16A, Vila nr.8,  Community 357, PO Box  333765, Dubai",25.14685317,55.21890403
128,Emiratele Arabe Unite,Dubai,Altele,"Dubai World Trade Center, sala  Sharjah A, Concourse 2, etaj 1, Sheikh Zayed Road, Dubai",25.22347142,55.28677479
129,Estonia,Tallinn,Ambasadă,"Rävala puiestee 5, etaj 5, cod poștal 10143, Tallinn",59.43365853,24.75702899
130,Etiopia,Addis Abeba,Ambasadă,"Kirkos subcity, Woreda 04,  House no. 1142, P.O. box 2478",8.98653888,38.77096517
131,Filipine,Manila,Ambasadă,"150 Legaspi street,  G.C.Corporate plaza, etaj 6, Legaspi Village, Makati city, cod poștal 1229, Manila",14.55654179,121.01641362
132,Finlanda,Helsinki,Ambasadă,"Stenbäckinkatu 24, cod poștal 00250, Helsinki",60.18641756,24.91008406
133,Finlanda,Mariehamn,Altele,"Norragatan 10A, cod poștal 22100, Mariehamn",60.09887845,19.93875658
134,Finlanda,Tampere,Altele,"Vuoreksen Puistokatu 94, cod poștal 33870, Tampere",61.4311761,23.8100135
135,Finlanda,Turku,Altele,"Yliopistonkatu 19, cod poștal 20100, Turku",60.45209442,22.26651944
136,Franța,Paris,Ambasadă,"123 Rue Saint-Dominique,  75007 Paris",48.85857,2.30296
137,Franța,Paris,Ambasadă,"123 Rue Saint-Dominique,  75007 Paris",48.85842,2.30293
138,Franța,Paris,Consulat General,"3 Rue de l`Exposition, 75007  Paris",48.85857861,2.30298497
139,Franța,Paris,Institut cultural român,"1 Rue de l`Exposition, 75007  Paris",48.85799025,2.30300792
140,Franța,Paris,Institut cultural român,"1 Rue de l`Exposition, 75007  Paris",48.85799025,2.30300792
141,Franța,Rungis,Altele,"Hôtel Mercure Paris Orly Rungis  Aéroport, 20 Avenue Charles  Lindbergh, 94150 Rungis",48.75680593,2.34633461
142,Franța,Issy-les-Moulineaux,Altele,"Salle municipale Micheline  Ostermeyer, Promenade du  Cœur de Ville, 92130 Issy-lesMoulineaux",48.82513691,2.27546255
143,Franța,Rueil-Malmaison,Altele,"Turul I: Atrium Salle des Fêtes,  81 Rue des Bons Raisins, 92500  Rueil-Malmaison  Turul II: Salle La Passerelle,  13-15 rue Becquerel, 92500  Rueil-Malmaison",48.87181522,2.20107574
144,Franța,Drancy,Altele,"Salle Paul Vaillant Couturier, 27  Rue Roger Petieu - bâtiment C - Esc F, 93700 Drancy",48.92334484,2.4481135
145,Franța,La Courneuve,Altele,"Salle Philippe Roux, 58 Rue de la Convention, 93120 La Courneuve",48.91692857,2.45680557
146,Franța,Le Blanc-Mesnil,Altele,"Centre Technique Municipal, 2  Avenue Albert Einstein, 93150  Le Blanc-Mesnil",48.92703754,2.39278975
147,Franța,Le Blanc-Mesnil,Altele,"Centre Technique Municipal, 2  Avenue Albert Einstein, 93150  Le Blanc-Mesnil",48.92703754,2.39278975
148,Franța,Le Blanc-Mesnil,Altele,"Centre Technique Municipal, 2  Avenue Albert Einstein, 93150  Le Blanc-Mesnil",48.92703754,2.39278975
149,Franța,Montreuil,Altele,"Sala Centrului cultural Ștefan cel  Mare – 27 Rue de Roches,  93100 Montreuil",48.94731039,2.46761029
150,Franța,Montreuil,Altele,"Salle Franklin, 60 Rue Franklin 93100 Montreuil",48.86347363,2.44430382
151,Franța,Pantin,Altele,"Salle André Breton, 25 Rue du Pré Saint Gervais 93500 Pantin",48.89021399,2.4033162
152,Franța,Bry-sur-Marne,Altele,"31-33 Rue des Clotais, 94360  Bry-sur-Marne",48.89025295,2.40330796
153,Franța,Melun,Altele,"Maison des Associations Jean  XXIII, 27 Rue Edmond  Michelet, 77000 Melun",48.54920882,2.65324471
154,Franța,Brest,Altele,"Salle Pierre Corre, 8 rue Pierre Corre, 29200 Brest",48.41401468,-4.49261149
155,Franța,Trappes,Altele,"Maison de la Boissière, 28 Rue du Centre, 78190 Trappes",48.77132,1.98045
156,Franța,Le Mans,Altele,"Maison de Quartier Jean-Ferrat,  115 Rue des Sablons, 72100 Le Mans",48.39096246,-4.49034608
157,Franța,Calais,Altele,"Salle Municipale Paul Caron - petite salle, 2 Rue du Général Margueritte, 62100 Calais",48.77133002,1.98045526
158,Franța,Bordeaux,Altele,"Turul I - Salle Nicole Vanrast,  250 Rue Malbec, 33800  Bordeaux  Turul II - Chartreuse SaintAndré, 194 Avenue du  Maréchal-De-Lattre de Tassigny,  33200 Bordeaux",44.85520385,-0.61517374
159,Franța,Pessac,Altele,"Salle du Petit Foyer, 9 Rue des Poilus, 33600 Pessac",44.80534059,-0.63179686
160,Franța,Caen,Altele,"Turul I - Maison de Quartier Centre, 9 Rue Neuve Bourg l’Abbé, 14000 Caen  Turul II - Maison de Quartier de  la Grâce de Dieu, Place du Commerce, 14000 Caen",49.18140511,-0.37893818
161,Franța,Lille,Altele,"Conseil Régional Hauts-deFrance, 151 Av. du Président Hoover, 59000 Lille",50.62915075,3.07853469
162,Franța,Lille,Altele,"Conseil Régional Hauts-deFrance, 151 Av. du Président Hoover, 59000 Lille",50.62919159,3.07857358
163,Franța,Loudéac,Altele,"Bâtiment la Providence, Salle n°  3, 36 Rue de Moncontour, 22600 Loudéac",50.6347318,3.08079479
164,Franța,Rennes,Altele,"Le Triangle - Cité de la danse,  Boulevard de Yougoslavie,  35200 Rennes",48.08860713,-1.65941096
165,Franța,Nantes,Altele,"Centre d`affaires Nuage B Nantes, Immeuble Kanoa, 6 Rue René Viviani, 44200 Nantes",47.2074322,-1.53625269
166,Franța,Saint-Herblain,Altele,"Carré des services, 15 Rue d’Arras, 44800 Saint-Herblain",47.2126322,-1.6090215
167,Franța,Troyes,Altele,"Maison de Quartier des Marots,  Salle Les Marots de Pouilly, 23  Rue Trouvassot, 10000 Troyes",48.30784734,4.04976961
168,Franța,Aulnay-sous-Bois,Altele,"Foyer Dumont, 12 Boulevard  Gallieni, 93600 Aulnay-sous- Bois",48.9309567,2.49570312
169,Franța,Aulnay-sous-Bois,Altele,"Foyer Dumont, 12 Boulevard  Gallieni, 93600 Aulnay-sous- Bois",48.93090916,2.49547331
170,Franța,Gagny,Altele,"Club Paul Éluard, 18bis Allée des Chênes, 93220 Gagny",48.89481703,2.53854753
171,Franța,Villeneuve-Saint Georges,Altele,"Maison pour tous, Rue des  Chênes, 94190 Villeneuve-Saint- Georges",48.73559055,2.46131727
172,Franța,Champigny-sur-Marne,Altele,"Salle Georges Seguy, Maison des Associations, 191 Rue de  Verdun, 94500 Champigny-surMarne",48.81323566,2.50702486
173,Franța,Villemomble,Altele,"Médiathèque Robert Calméjane,  Salle Mermoz, 118 Grande Rue,  93250 Villemomble",48.88249496,2.51664893
174,Franța,Tours,Altele,"Salle du Parvis, 7 Rue Toulouse Lautrec, 37000 Tours",47.34100378,0.63854705
175,Franța,Saran,Altele,"Hôtel Campanile Orléans Nord - Saran, 744 Route Nationale 20, Saran 45770",47.94456929,1.8933834
176,Franța,Ivry-sur-Seine,Altele,"Espace Robespierre, 2 Rue  Robespierre, 94200 Ivry-sur- Seine",47.37663099,0.69625704
177,Franța,Rouen,Altele,"Maison de Quartier Cavelier de  la Salle, 1 Rue Pierre Forfait, 76100 Rouen",49.43719245,1.08184256
178,Franța,La Ferté-sous-Jouarre,Altele,"10 Allée du Jumelage, 77260 La  Ferté-sous-Jouarre",48.81089963,2.3835643
179,Franța,Beauvais,Altele,"98 Rue de Notre Dame du Thil,  60000 Beauvais",49.4455806,2.080075
180,Franța,Poissy,Altele,"Hôtel Restaurant L`Esturgeon, 6  Cours du 14 Juillet, 78300 Poissy",48.93293629,2.03771906
181,Franța,Poitiers,Altele,17 Rue Salvador Allende 86000  Poitiers,46.5813498,0.3728397
182,Principatul Monaco,Monaco,Altele,"Hôtel Le Méridien Beach  Plaza, 22 Avenue Princesse  Grâce, 98000 Monte Carlo,  Monaco",43.74834,7.43583
183,Franța,Lyon,Consulat general,"29 rue de Bonnel, 69003 Lyon",45.76196,4.8461
184,Franța,Lyon,Altele,"111 rue Smith, 69002 Lyon",45.74033,4.82051
185,Franța,Saint Genis Laval,Altele,"12 place des Collonges, 69230  Saint-Genis-Laval",45.69287,4.80355
186,Franța,Saint Etienne,Altele,"4 rue Andre Malraux, 42000  Saint-Etienne",45.43982711,4.38516037
187,Franța,Dijon,Altele,"40 rue Léonard de Vinci, 21000  Dijon",47.30342433,5.01055079
188,Franța,Clermont Ferrand,Altele,"120 avenue de la Republique,  63000 Clermont-Ferrand",45.78877,3.10912
189,Franța,Ambilly/Annemasse,Altele,"2 rue de la Martiniere, 74100  Ambilly",46.1996802,6.2245305
190,Franța,Saint-Martin-d'Héres/Grenoble,Altele,"10 place Paul Eluard, 38400  Saint-Martin-d`Heres",45.1654973,5.7478075
191,Franța,Marsilia,Altele,"World Trade Center, 2 rue Henri Barbusse, 13001 Marseille",43.29862,5.37461
192,Franța,Marsilia,Altele,"World Trade Center, 2 rue Henri Barbusse, 13001 Marseille",43.29862,5.37461
193,Franța,Marignane,Altele,"Salle Jules Raimu, Place Compte de Grasse, 13700 Marignane",43.43152262,5.18962485
194,Franța,Antibes,Altele,"Salle Pollyvalente du 8 Mai,  Square du 8 Mai 1945, 06600  Antibes (Prés des  Pecheurs/lânga Grand Roue)",43.58351078,7.12498787
195,Franța,Nisa,Altele,"Service Elections, 4 Rue Ribotti,  06300 Nice",43.70215184,7.28397631
196,Franța,Nisa,Altele,"Service Elections, 4 Rue Ribotti,  06300 Nice",43.70210894,7.28397814
197,Franța,Montpellier,Altele,"Maison des Relations  Internationales Nelson Mandela,  14 Descent en Barrat, 34000 Montpellier (Esplanade Charles de Gaulle)",43.61336793,3.88048448
198,Franța,Toulouse,Altele,"Espace Francois Laffont, 1 Rue Leon Jouhaux, 31500 Toulouse",43.61317132,1.46063222
199,Franța,Bastia (Corsica),Altele,"Centre culturel (Centru cultural)  Alb`Oru, 13 Rue Saint-Exupery,  20600 Bastia",42.67769064,9.44092491
200,Franța,Ajaccio (Corsica),Altele,"Salle de réunion DGA, 73 cours Napoleon, 20000 Ajaccio",41.92716936,8.73832304
201,Franța,Strasbourg,Consulat General,"41 rue Schweighaeuser, 67000  Strasbourg",48.58841,7.76912
202,Franța,Strasbourg,Consulat General,"41 rue Schweighaeuser, 67000  Strasbourg",48.58841,7.76912
203,Franța,Colmar,Altele,"Parc des Expositions, avenue de la Foire aux Vins, 68000 Colmar",48.09865055,7.35986291
204,Franța,Nancy,Altele,"Domaine de l`Asnee, 11 rue de  Laxou, 54600 Villers-les-Nancy",48.67438967,6.14303667
205,Georgia,Tbilisi,Ambasadă,"Strada Lvovi nr. 7, cartier  Saburtalo, Tbilisi, cod poștal 0160",41.73243,44.76635
206,Germania,Berlin,Ambasadă,"Dorotheenstr.62-66, cod poștal 10117, Berlin",52.51883026,13.386567
207,Germania,Berlin,Ambasadă,"Dorotheenstr.62-66, cod poștal 10117, Berlin",52.51883026,13.386567
208,Germania,Berlin,Ambasadă,"Dorotheenstr.62-66, cod poștal 10117, Berlin",52.51877026,13.38660103
209,Germania,Braunschweig,Altele,"Ludwig-Winter-Straße 4, cod poștal 38120 Braunschweig",52.24886801,10.48959735
210,Germania,Bremen,Altele,"An der Weide 50 A, cod poștal 28195, Bremen",53.08143,8.81521
211,Germania,Dresden,Altele,"Dr. Külz-Ring 19, cod poștal 01067, Dresda",51.04771354,13.73951248
212,Germania,Erfurt,Altele,"Leipziger Straße 15, cod poștal 99085, Erfurt",50.98259754,11.04156751
213,Germania,Flensburg,Altele,"Ansgarstrasse 1, cod poștal 24944, Flensburg",54.80587336,9.46514074
214,Germania,Hamburg,Altele,"Albert-Einstein-Ring 11-15, cod poștal 22761, Hamburg",53.57494,9.88799
215,Germania,Hamburg,Altele,"Bürgerweide 31, cod poștal 20535, Hamburg",53.5573554,10.03099579
216,Germania,Hanovra,Altele,"Dornierstr.2, cod poștal 30179, Hanovra",52.41717722,9.74730189
217,Germania,Hanovra,Altele,"Dornierstr.2a, cod poștal 30179, Hanovra",52.41736431,9.74718461
218,Germania,Kiel,Altele,"Waisenhofstraße 3, cod poștal  24103 Kiel",54.32150983,10.131628
219,Germania,Leipzig,Altele,"Russenstrasse 196, cod poștal 04288 Leipzig",51.30248752,12.45057493
220,Germania,Rostock,Altele,"Am Kabutzenhof 20A, cod poștal 18057, Rostock",54.09348485,12.11332002
221,Germania,Quakenbrück,Altele,"Oldenburger Strasse 10, cod poștal 49610, Quakenbrück",52.68099491,7.95325781
222,Germania,Essen (Oldenburg),Altele,"Am Kirchplatz 3, cod poștal 49632, Essen (Oldenburg)",52.71726117,7.94091428
223,Germania,Sögel,Altele,"Püttkesberge 13, cod poștal 49751, Sögel",52.83363,7.5141
224,Germania,Bonn,Consulat,"Legionsweg 14, 53117 Bonn",50.75054065,7.10119998
225,Germania,Bonn,Consulat,"Legionsweg 14, 53117 Bonn",50.75054065,7.10119998
226,Germania,Beckum,Altele,"Volkshochschule – Antoniusstr. 5-7, 59269 Beckum",51.7586647,8.0432385
227,Germania,Dortmund,Altele,"Grammophon Events,  Eberstraße 30, 44145 Dortmund",51.5345859,7.4616153
228,Germania,Duisburg,Altele,"Parohia Ortodoxă,  Molbergstraße 14, 47249 Duisburg",51.38087404,6.74441189
229,Germania,Düsseldorf,Altele,"Amt für Statistik und Wahlen;  Mecumstraße 10, 40223 Düsseldorf",51.2057327,6.7836644
230,Germania,Föhren,Altele,"Firma A+M Gebäudereinigung, Europa-Allee 6, 54343 Föhren",49.85828208,6.78553548
231,Germania,Frankfurt,Altele,"Sediu ANTAL; Im Bärengarten 11, 60599 Frankfurt",50.10364,8.71336
232,Germania,Gütersloh,Altele,"MLM Consulting;  Marienfelderstraße 4A, 33330, Gütersloh",51.91035,8.37059
233,Germania,Kassel,Altele,"Parohia Ortodoxă Română,  Friedrich Eberth Strasse 249,  34119, Kassel",51.31533,9.45294
234,Germania,Köln,Altele,"Parohia Ortodoxă Köln- Lindenthal, Decksteiner Str. 7,  50935, Köln",50.92538979,6.89997909
235,Germania,Köln,Altele,"Parohia Românească –  Elisabeth-Breuer-Straße 46,  51065 Köln",50.9614275,7.01225506
236,Germania,Langenselbold,Altele,"Kirchhof GmbH; Am Seegraben 4, 63505, Langenselbold",50.16400694,9.04707473
237,Germania,Mainz,Altele,"Anni-Eisler-Lehmannstraße 3, 55122 Mainz",50.00668652,8.2517101
238,Germania,Neustadt an der Weinstraße,Altele,"Le Quartier Hornbach 13, 67433 Neustadt an der Weinstraße",49.3415397,8.1669098
239,Germania,Offenbach,Altele,"Parohia Sf. Nicolae, Backstr. 16, 63069, Offenbach am Main",50.08891422,8.74681479
240,Germania,Offenbach,Altele,"Carl-Legien-Str. 15, 63073 Offenbach am Main",50.08366556,8.83616436
241,Germania,Paderborn,Altele,"Europa Finanz- und  Integrationsberatung,  Frankfurter Weg 10, 33106  Paderborn",51.70726614,8.72109401
242,Germania,Rheda-Wiedenbrück,Altele,"Pfarrheim St. Johannes,  Nonenstraße 94, 33378 RhedaWiedenbrück",51.84889007,8.27839008
243,Germania,Wadgassen,Altele,"Kulturhaus Hostenbach,  Kaiserstr. 64, 66787 Wadgassen",49.26361257,6.82486821
244,Germania,Wiesbaden,Altele,"AWO Familienbildungsstätte  Hedi Konrad, Walramstr. 16a,  65183 Wiesbaden",50.08206144,8.23136039
245,Germania,München,Altele,"Zentrum xtra-münchen.com,  Hanauer Str. 103, cod poștal  80993 München",48.18662329,11.53292061
246,Germania,München,Altele,"Zentrum xtra-münchen.com,  Hanauer Str. 103, cod poștal  80993 München",48.18646833,11.53297989
247,Germania,München,Altele,"Zentrum xtra-münchen.com,  Hanauer Str. 103, cod poștal  80993 München",48.18661294,11.5327453
248,Germania,München,Altele,"Zentrum xtra-münchen.com,  Hanauer Str. 103, cod poștal  80993 München",48.18637655,11.53269598
249,Germania,München,Altele,"Zentrum xtra-münchen.com,  Hanauer Str. 103, cod poștal  80993 München",48.18633859,11.53253548
250,Germania,Aschaffenburg,Altele,"Pfarrei St. Konrad, Bussardweg  25, cod poștal 63741, Aschaffenburg",49.9919,9.11515
251,Germania,Augsburg,Altele,"Messe Augsburg - Halle 6, Am  Messezentrum 5, cod poștal  86159, Augsburg",48.3410259,10.89278013
252,Germania,Augsburg,Altele,"Messe Augsburg - Halle 6, Am  Messezentrum 5, cod poștal  86159, Augsburg",48.3410259,10.89278013
253,Germania,Augsburg,Altele,"Messe Augsburg - Halle 6, Am  Messezentrum 5, cod poștal  86159, Augsburg",48.3410259,10.89278013
254,Germania,Augsburg,Altele,"Messe Augsburg - Halle 6, Am  Messezentrum 5, cod poștal  86159, Augsburg",48.3410259,10.89278013
255,Germania,Bayreuth,Altele,"Schloßgalerie Bayreuth,  Kanalstraße 3, cod poștal 95444, Bayreuth",49.94524637,11.57632649
256,Germania,Dachau,Altele,"Ludwig-Thoma-Haus, Augsburger Straße 23, cod poștal 85221, Dachau",48.26003787,11.43252002
257,Germania,Erding,Altele,"Krankenhausstraße 19, cod poștal 85435, Erding",48.30610776,11.90492886
258,Germania,Ingolstadt,Altele,"NH-Tagungsraum, Goethestraße  153, cod poștal 85055, Ingolstadt",48.77245574,11.45491013
259,Germania,Ingolstadt,Altele,"NH-Tagungsraum, Goethestraße  153, cod poștal 85055, Ingolstadt",48.77245574,11.45491013
260,Germania,Kempten,Altele,"Tagungszentrum S4, An d.  Stadtmauer 4, cod poștal 87435, Kempten",47.72438356,10.31973401
261,Germania,Landshut,Altele,"Ehem. Schule St. Martin,  Neustadt 474/475, cod poștal  84028, Landshut",48.53435,12.15353
262,Germania,Nürnberg,Altele,"Meistersingerhalle K-Raum 6,  Münchener Str. 21, cod poștal  90478, Nürnberg",49.43744648,11.10542504
263,Germania,Nürnberg,Altele,"Meistersingerhalle K-Raum 6,  Münchener Str. 21, cod poștal  90478, Nürnberg",49.43722509,11.10539888
264,Germania,Nürnberg,Altele,"Meistersingerhalle K-Raum 7,  Münchener Str. 21, cod poștal  90478, Nürnberg",49.43706392,11.10524687
265,Germania,Nürnberg,Altele,"Heilig-Geist-Saal, Hans-SachsPlatz 2, cod poștal 90403, Nürnberg",49.45309256,11.07971782
266,Germania,Nürnberg,Altele,"Heilig-Geist-Saal, Hans-SachsPlatz 2, cod poștal 90403, Nürnberg",49.45299605,11.07980148
267,Germania,Nürnberg,Altele,"Heilig-Geist-Saal, Hans-SachsPlatz 2, cod poștal 90403, Nürnberg",49.45286875,11.07985186
268,Germania,Regensburg,Altele,"Bayernhafen, Linzer Str. 6, cod poștal 93055, Regensburg",49.01791217,12.12199569
269,Germania,Rosenheim,Altele,"Kufsteiner Str. 69, cod poștal 83026, Rosenheim",47.84707215,12.12600333
270,Germania,Straubing,Altele,"Konferenzraum am Hafen Straubing-Sand, Europaring 4, cod poștal 94315, Straubing",48.89470411,12.65746414
271,Germania,Straubing,Altele,"Konferenzraum am Hafen Straubing-Sand, Europaring 4, cod poștal 94315, Straubing",48.89470411,12.65746414
272,Germania,Traunreut,Altele,"Biserica ortodoxă română,  Siebenbürgenerstr.2, cod poștal  83301, Traunreut",47.96769,12.60646
273,Germania,Vilshofen an der Donau,Altele,"Parohia ortodoxă, Aidenbacher  Str. 92, cod poștal 94474, Vilshofen an der Donau",48.61412,13.17619
274,Germania,Würzburg,Altele,"Gemeindehaus St. Paul, Andreas-Grieser-Str. 2, cod poștal 97084, Würzburg",49.76465108,9.9445203
275,Germania,Stuttgart,Consulat General,"Hauptstätterstr. 70, 70178 Stuttgart",48.76994,9.17436
276,Germania,Stuttgart,Consulat General,"Hauptstätterstr. 70, 70178 Stuttgart",48.76994,9.17436
277,Germania,Baden-Baden,Altele,"Yburghalle Varnhalt Weinsteige 17, 76534 Baden -Baden",48.7370781,8.1792116
278,Germania,Esslingen am Neckar,Altele,"Georg-Christian-von-KesslerPlatz 2, 73728 Esslingen am Neckar",48.7420457,9.3056946
279,Germania,Freiburg im Breisgau,Altele,"Jakob Saur Str. 11, 79199 Kirchzarten",47.96865105,7.95596779
280,Germania,Freiburg im Breisgau,Altele,"Jakob Saur Str. 11, 79199 Kirchzarten",47.96865105,7.95596779
281,Germania,Heilbronn,Altele,"Herbststr.16, 74072 Heilbronn",49.13908,9.2251
282,Germania,Karlsruhe,Altele,"Linkenheimer Landstr. 133a, 76149 Karlsruhe",49.04574286,8.39088987
283,Germania,Karlsruhe,Altele,"Linkenheimer Landstr. 133a, 76149 Karlsruhe",49.04574286,8.39088987
284,Germania,Ludwigsburg,Altele,"Königsallee 43, 71638 Ludwigsburg",48.8924241,9.1969121
285,Germania,Mannheim,Altele,"O4 4, 68161 Mannheim",49.48651,8.46862
286,Germania,Pforzheim,Altele,"Osterfelder Str. 12, 75172 Pforzheim",48.89309,8.68854
287,Germania,Ravensburg,Altele,"Herknerstr. 4, 88250 Weingarten",47.8219275,9.6373121
288,Germania,Reutlingen,Altele,"Ringelbachstraße 195/41, 72762 Reutlingen",48.47713,9.19838
289,Germania,Schwäbisch Hall,Altele,"Stauffenbergstraße 35 / 37, 74523 Schwäbisch Hall",49.11462,9.77662
290,Germania,Sigmaringen,Altele,"Am Rathaus 2, 72488 Sigmaringen-Laiz",48.0781474,9.1969204
291,Germania,Ulm,Altele,"Wiblinger Ring 4, 89079 Ulm",48.3557309,9.9654523
292,Germania,Ulm,Altele,"Wiblinger Ring 4, 89079 Ulm",48.3557309,9.9654523
293,Germania,Villingen Schwenningen,Altele,"Umweltzentrum Schwarzwald  Baar Neckar, Neckarstraße 120,  78056 Villingen-Schwenningen",48.0533408,8.5315421
294,Grecia,Atena,Ambasadă,"str. Emmanouil Benaki nr. 7, cod poștal 154 52, Paleo Psychiko, Atena",37.98352,23.73082
295,Grecia,Atena,Altele,"str. Liosion nr. 123, et. 1, Piața Attikis, cod poștal 104 45, Atena",37.99705585,23.7220139
296,Grecia,Atena,Altele,"str. Agias Sofias nr. 27, cod poștal 104 44, Piața  Pantazopoulou, cartier Kolonos, Atena",37.99187082,23.71818964
297,Grecia,Aspropyrgos,Altele,"bd. Dimokratias, Piața  Sintrivani, cod poștal 193 00, Aspropyrgos",38.05960608,23.58897504
298,Grecia,Chania,Altele,"Piața Elefterias nr. 1,  cod poștal 731 34, Chania, Insula Creta",35.51046726,24.03047753
299,Grecia,Iraklio,Altele,"Strada Androgeo nr. 2, cod poștal 712 02, Iraklio (Heraklion), Insula Creta",35.33939584,25.13404689
300,Grecia,Patra,Altele,"str. Filopoimenos nr. 24, cod poștal 262 21, Patra",38.24528,21.73223
301,Grecia,Preveza,Altele,"Galeria municipală de artă  ”Giannis Moralis”, Vila  Athanasiadis, str. Lord Byron  (Vyrona) nr. 6, cod poștal 481  00, Preveza (lângă Alpha Bank)",38.95786043,20.75376374
302,Grecia,Sparta,Altele,"bd. Likourgou nr. 89, cod poștal 231 00, Sparta (clădirea fostei primării, situată în Piața Centrală)",37.07383306,22.42878571
303,Grecia,Salonic,Consulat General,"Theagenous Charisi, nr. 78, CP 54639, Salonic",40.61507325,22.9633257
304,Grecia,Larisa,Altele,"Plateia OSE, nr. 6, CP 41223, Larisa,",39.63195,22.43379
305,India,New Delhi,Ambasadă,"3/6 Shanti Niketan, oraș New  Delhi, statul Delhi, cod 110021",28.57748839,77.17114678
306,Republica Indonezia,Jakarta,Ambasadă,"Jl. Teuku Cik Ditiro No.42-A 10, RT.10/RW.5, Menteng, Kec.  Menteng, Jakarta 10310",-6.1981,106.83664
307,Regatul Hașemit al Iordaniei,Amman,Ambasadă,"Str. Al-Madeenah AlMunawarah, nr. 35, Amman, 11181",31.96433,35.86438
308,Irak,Bagdad,Ambasadă,"Mahalla 601, Zuquak 15, Al Mansur street, nr. C45, cod poștal 10001, Bagdad",33.31494181,44.35379318
309,Irak,Erbil,Birou consular,"Gulan Street, Ster Tower, etaj 7, camera 702, cod poștal 44001, Erbil",36.21660839,44.00533077
310,Republica Islamică Iran,Teheran,Secție Consulară,"Str. Shahid Meshki nr 89, cod poștal 115.46.399.11, zona Fakhrabad, Baharestan, Tehran",35.69474056,51.44125158
311,Irlanda,Dublin,Secție Consulară,"Palmerston House, Ground Floor, Denzille Lane/Fenian  Street, Dublin 2, D02 WD37",53.34131569,-6.24851982
312,Irlanda,Dublin,Secție Consulară,"Palmerston House, Ground Floor, Denzille Lane/Fenian  Street, Dublin 2, D02 WD37",53.34131569,-6.24851982
313,Irlanda,Dublin,Secție Consulară,"Palmerston House, Ground Floor, Denzille Lane/Fenian  Street, Dublin 2, D02 WD37",53.34131569,-6.24851982
314,Irlanda,Dublin,Secție Consulară,"Palmerston House, Ground Floor, Denzille Lane/Fenian  Street, Dublin 2, D02 WD37",53.34131569,-6.24851982
315,Irlanda,Dublin,Altele,"Westmanstown Sports and  Conference Centre, Lucan  Road,Clonsilla, Dublin 15, D15  Y2DH",53.37966821,-6.44218259
316,Irlanda,Dublin,Altele,"Westmanstown Sports and  Conference Centre, Lucan  Road,Clonsilla, Dublin 15, D15  Y2DH",53.37966821,-6.44218259
317,Irlanda,Dublin,Altele,"Westmanstown Sports and  Conference Centre, Lucan  Road,Clonsilla, Dublin 15, D15  Y2DH",53.37966821,-6.44218259
318,Irlanda,Dublin,Altele,"Westmanstown Sports and  Conference Centre, Lucan  Road,Clonsilla, Dublin 15, D15  Y2DH",53.37966821,-6.44218259
319,Irlanda,Dublin,Altele,"Westmanstown Sports and  Conference Centre, Lucan  Road,Clonsilla, Dublin 15, D15  Y2DH",53.37966821,-6.44218259
320,Irlanda,Dublin,Altele,"Westmanstown Sports and Conference Centre, Lucan  Road,Clonsilla, Dublin 15, D15  Y2DH",53.37966821,-6.44218259
321,Irlanda,Cork,Altele,"Little Island Sports Complex,  Wallingstown, Little Island, Cork, T45 F449",51.90033353,-8.3680647
322,Irlanda,Drogheda,Altele,"Drogheda Civic Offices, Fair  Street, Moneymore, Drogheda, Co. Louth, A92 P440",53.7163997,-6.35350025
323,Irlanda,Galway,Altele,"Ardilaun House Hotel, Taylors Hill Road, Galway, H91 H29F",53.2675936,-9.08091511
324,Irlanda,Kilkenny,Altele,"Pembroke Hotel, 11 Patrick St, Garden, Kilkenny, R95 VNP4",52.64940528,-7.25131733
325,Irlanda,Limerick,Altele,"The Engine Building, Cecil Street, Limerick, V94 TN32",52.66070893,-8.62638277
326,Irlanda,Waterford,Altele,"Crystal Sport and Leisure  Centre, Cork Road, Waterford City, X91 E6PX",52.24338616,-7.15044471
327,Israel,Tel Aviv,Secţie Consulară,"Paz Tower, Str. Shoham, Nr. 2,  etaj 8, cod poștal 52510, Ramat Gan",32.08228697,34.8033368
328,Israel,Tel Aviv,Institut cultural român,"Shaul Hamelech Bvd, Nr. 8., etaj 6, cod poștal 64733, Tel Aviv",32.07537382,34.78406227
329,Israel,Haifa,Consulat General,"3 Habankim, Haifa, cod poștal  3326115",32.82012292,34.99732497
330,Italia ,Roma,Ambasadă,"Via Nicolò Tartaglia, 40, cod poștal 00197, Roma",41.9243021,12.48822183
331,Italia ,Roma,Ambasadă,"Via Nicolò Tartaglia, 40, cod poștal 00197, Roma",41.9243021,12.48822183
332,Italia ,Roma,Institut cultural român,"Piazza José de San Martin, 1 cod poștal 00197, Roma",41.9169544,12.47948078
333,Italia ,Roma,Institut cultural român,"Viale delle Belle Arti, 110 cod poștal 00197, Roma",41.91691313,12.48216415
334,Italia ,Roma,Consulat General,"Viale Libano 38-40, cod poștal 00144, Roma",41.82243447,12.46390406
335,Italia ,Roma,Consulat General,"Viale Libano 38-40, cod poștal 00144, Roma",41.82243447,12.46390406
336,Italia ,Roma,Consulat General,"Viale Libano 38-40, cod poștal 00144, Roma",41.82243447,12.46390406
337,Italia ,Ostia,Altele,"Centro Anziani Il Sommergibile - Viale del Sommergibile, 71, cod poștal 00121, Ostia",41.73725403,12.26227205
338,Italia ,Monterotondo,Altele,"Quality Hotel Green Palace - Via  Salaria, 207, cod poștal  00015,  Monterotondo",42.0617952,12.58915836
339,Italia ,Guidonia Montecelio,Altele,"Biblioteca comunale - Via  Maurizio Morris 7, cod poștal  00012, Guidonia Montecelio",41.99165635,12.72262084
340,Italia ,Palestrina,Altele,"Albergo Ristorante Stella - Piazza della Liberazione 3, cod poștal 00036, Palestrina",41.83906004,12.89012304
341,Italia ,Tivoli,Altele,"Città dello Sport di Tivoli - Via  Empolitana, cod poștal, 00019, Tivoli",41.94858323,12.83261725
342,Italia ,Rignano Flaminio,Altele,"Centro Vaccinale di Rignano Flaminio - Via dell’Aquila, cod poștal 00068, Rignano Flaminio",42.16100386,12.4808874
343,Italia ,Albano Laziale,Altele,"Centro Anziani di Albano  Laziale - Via Borgo Garibaldi,  12, cod poștal 00041, Albano Laziale",41.726682,12.66031832
344,Italia ,Ladispoli,Altele,"Biblioteca comunale - Via  Caltagirone, snc, cod poștal  00055,  Ladispoli",41.95939445,12.07137327
345,Italia ,Frosinone,Altele,"Casa della Cultura - Via  Giordano Bruno, cod poștal  03100,  Frosinone",41.64412722,13.35288542
346,Italia ,Latina,Altele,"Hotel Europa Latina - Via Emanuele Filiberto, 14, cod poștal, 04100, Latina",41.46804522,12.90171304
347,Italia ,Viterbo,Altele,"Centro sociale polivalente  “Sacrario” - Via Santa Maria in  Volturno 18, cod poștal 01100,  Viterbo",42.41900536,12.10405182
348,Italia ,Terni,Altele,"Sala de Consiliu - Piazza San Giovanni Paolo II nr. 1, cod poștal  05100, Terni",42.56246351,12.64641775
349,Italia ,Perugia,Altele,"CVA La Piramide - Via Armando  Diaz, 90, cod poștal 06128, Perugia",43.10046024,12.37137727
350,Italia ,Pescara,Altele,"Centro Polivalente Mons. Gustavo Britti - Via Rio Sparto, cod poștal 65129, Pescara",42.44830589,14.21407887
351,Italia ,Olbia,Altele,"Sala Corsi ASPO - Via  Indonesia, nr. 9, cod poștal  07026, Olbia",40.9315358,9.51315897
352,Italia ,Cagliari,Altele,"Primărie - Sala EXTE - Via  Roma 145, cod poștal 09124, Cagliari",39.21528247,9.11056969
353,Italia ,Napoli,Altele,"Hotel Futura – Sala  AUDITORIUM 3 - Via  Nazionale delle Puglie 195, cod poștal 80026, Napoli",40.89081895,14.32247128
354,Malta ,La Valletta,Altele,"Grand Hotel Excelsior - Great Siege Road, Floriana FRN 1810",35.89689025,14.50509242
355,Italia,Bari,Consulat General,"Via Bruno Zaccaro Nr.17/19, Bari, CAP 70126",41.09064023,16.88908565
356,Italia,Bari,Altele,"Palazzo Città, Corso Vittorio  Emanuele II, Nr. 84, Bari CAP 70122",41.12579566,16.86772444
357,Italia,Trani,Altele,"Ufficio Presidenza Provincia di  B.A.T. ex Lum, SP 130,  Km.1.500, Trani CAP 76125",41.26950207,16.38695863
358,Italia,Foggia,Altele,"Ex. Banca d`Italia, Corso Garibaldi Nr. 37, angolo Via  Polare, Foggia CAP 71121",41.46178542,15.54302281
359,Italia,Lecce,Altele,"Centro Sociale Comunale, Via Matera Nr. 2, Lecce CAP 73100",40.35657274,18.20045011
360,Italia,Taranto,Altele,"Istituto Comprensivo ""EuropaAlighieri"", Via Papa Pio XII, Nr. 3, Taranto CAP 74123",40.46440401,17.25971241
361,Italia,Ginosa,Altele,"Istituto Comprensivo G. Deledda  - S. G. Bosco, Via Quarto, Nr. 8, Ginosa CAP 74013",40.57648545,16.75555246
362,Italia,Cosenza,Altele,"Ex sede Municipia SpA, Via San  Martino Nr. 23, Piazza San  Nicola, Cosenza CAP 87100",39.29298525,16.2542417
363,Italia,Reggio Calabria,Altele,"Sala G. Versace - Palazzo  CE.DIR, Via Sant`Anna II  Tronco, Reggio Calabria CAP  89128",38.10346518,15.65401047
364,Italia,Crotone,Altele,"Comando Polizia Locale, Via  Leonardo Gallucci, Nr. 109, Crotone CAP 88900",39.0675215,17.12953316
365,Italia,Catanzaro,Altele,"Istituto Comprensivo  ""Casalinuovo"", Via Stretto  Antico Snc, Catanzaro CAP  88100",38.82537476,16.6090766
366,Italia,Vibo Valentia,Altele,"Palazzo Valentianum, Piazza San  Leoluca SNC, Vibo Valentia CAP 89900",38.67721082,16.10635181
367,Italia,Lamezia Terme,Altele,"Complesso Monumentale del  San Domenico (Museo  Archeologico Lametino), Piazzetta San Domenico snc, Lamezia Terme CAP 88046",38.974667,16.31894636
368,Italia,Corigliano-Rossano,altele,"Palazzo dell’Orologio, primo piano, Piazza del Popolo snc, Corigliano Centro Storico,  Corigliano Rossano CAP 87064",39.59654503,16.51715622
369,Italia,Potenza,Altele,"Centro Provinciale Istruzione,  Via Pietro Lacava Nr. 2, Potenza CAP 85100",40.63771851,15.81400577
370,Italia,Matera,Altele,"Complesso Commerciale Il  Circo, Sala Consiliare ""Pier Paolo Pasolini"", Via G. Sallustio Crispo snc, Matera CAP 75100",40.68120139,16.57761316
371,Italia,Campobasso,Altele,"Terzo Spazio, ex Scuola CEP  Nord, Via Eugenio Cirese snc, Campobasso CAP 86100",41.56618712,14.67450769
372,Italia,Isernia,Altele,"Provincia di Isernia, Sala Gialla  - Piano Terra, Via Giovanni  Berta nr. 189, Isernia CAP  86170",41.60027755,14.23608792
373,Italia,Bologna,Consulat General,"Via Guelfa, 9B, cod poștal 40138, Bologna",44.49142237,11.38731743
374,Italia,Bologna,Consulat General,"Via Guelfa, 9D, cod poștal 40138, Bologna",44.49144481,11.38728346
375,Italia,Bologna - Borgo Panigale,Altele,"Via Battindarno, 123, cod poștal  40133 Bologna, Sala Falcone Borsellino",44.50224183,11.2963642
376,Italia,Ancona,Altele,"Via C. Battisti, 11/C, Sala  Civica, cod poștal 60123, Ancona",43.61725041,13.52529384
377,Italia,Arezzo,Altele,"Via Pier Luigi da Palestrina, 19, cod poștal 52100, Arezzo",43.4713015,11.88724166
378,Italia,Ascoli Piceno,Altele,"Via Emidio Luzi, 18, Ex. Scuola materna di Poggio di Bretta,  cod poștal 63100, Ascoli Piceno",42.85880118,13.64228018
379,Italia,Budrio,Altele,"Via Bianchi, 31, Centro Sociale, cod poștal 40054, Budrio",44.54014966,11.53669091
380,Italia,Cesena,Altele,"Piazza Anna Magnani, 143, Sala del Quartiere Oltre Savio, cod poștal 47522, Cesena",44.13592736,12.22768349
381,Italia,Ferrara,Altele,"Viale Cavour, 187, cod poștal 44122, Ferrara",44.84418008,11.60588912
382,Italia,Firenze,Altele,"Piazza Madonna della Neve, 6,  Sala Pasquini, cod poștal 50122, Firenze",43.76931458,11.26897234
383,Italia,Forli,Altele,"Corso Della Repubblica, 88, Ex. Cinema Mazzini, 47121, Forli",44.21991557,12.04540397
384,Italia,Grosseto,Altele,"Via Gozzi, 22, cod poștal 58100,   Sala Comunale di Barbanella, Grosseto",42.77476736,11.10122539
385,Italia,Imola,Altele,"Viale Cappuccini, 14, cod poștal 40026, Imola",44.35578382,11.70112327
386,Italia,Livorno,Altele,"Scali Finocchietti, 4, Sala  Simonini, cod poștal 57123, Livorno",43.55265292,10.30769026
387,Italia,Lucca,Altele,"Frazione S. Alessio - Via provinciale din S. Alessio, 2145,  cod poștal 55100, Lucca",43.86181784,10.48165069
388,Italia,Macerata,Altele,"Via  Liviabella, 7, cod poștal  62100, Sforzacosta, Macerata",43.25551499,13.41617623
389,Italia,Massa,Altele,"Via San Leonardo, 484,  Marina di Massa, cod poștal 54100",44.00999435,10.10139728
390,Italia,Modena,Altele,"Via Viterbo, 80, cod poștal 41125, Modena",44.62288471,10.93721475
391,Italia,Montecatini Terme,Altele,"Via Giuseppe  Mazzini,  55,  Mercato Coperto, cod poștal  51016, Montecatini Terme",43.88316262,10.76630718
392,Italia,Parma,Altele,"Sala di Via Bizzozero, 19, cod poștal 43123, Parma",44.78701018,10.32983029
393,Italia,Pesaro,Altele,"Via Federico Confalonieri, 19, cod poștal 61121, Pesaro",43.90249562,12.90548163
394,Italia,Piacenza,Altele,"Cantone Vicolo San Nazzaro,  16, cod poștal 29121, Piacenza",45.05508816,9.6849458
395,Italia,Pistoia,Altele,"Via Cancellieri, 30, cod poștal 51100, Pistoia",43.93392515,10.91275231
396,Italia,Prato,Altele,"Via Andrea Guazzalotti, 12, cod poștal 59100, Centro Civico di Iolo, Prato",43.8646374,11.04136263
397,Italia,Ravenna,Altele,"Via Oriani, 44, Sala degli  Emigranti, cod poștal 48121, Ravenna",44.41458376,12.20425539
398,Italia,Reggio Emilia,Altele,"Via Arturo Toscanini, 20, Centro  Sociale L. Spallanzani-Orti,  42122 Reggio Emilia",44.68480172,10.6484211
399,Italia,Rimini,Altele,"Via Bidente, 1/P, Sala Civica, cod poștal 47924, Rimini",44.03709428,12.57544698
400,Italia,San Lazzaro,Altele,"Piazza Luciano Bracci, sala ex.  Bande Musicale, cod poștal  40068, San Lazzaro di Savena",44.47032728,11.40709493
401,Italia,Sesto Fiorentino,Altele,"Via del Risorgimento, 237,  Circolo di Padule, cod poștal  50019, Sesto Fiorentino",43.8366766,11.17667561
402,Italia,Siena,Altele,"Via P. Nenni, 8/A, cod poștal 53100, Siena",43.3476788,11.32994266
403,Italia,Catania,Consulat,"Via Misterbianco 1, 95131, Catania",37.50649739,15.09631573
404,Italia,Catania,Consulat,"Via Misterbianco 1, 95131, Catania",37.50649739,15.09631573
405,Italia,Alcamo,Altele,"Via Ugo Foscolo 1, 91011, Alcamo",37.98420104,12.96166813
406,Italia,Vittoria,Altele,"Via Del Tennis 23, 97019, Vittoria",36.93001487,14.48809225
407,Italia,Palermo,Altele,"Via IV Aprile 4, Palazzo  Palagonia alla Gancia - Aula  Lorusso,  90133, Palermo",38.11674423,13.3700606
408,Italia,Canicatti,Altele,"Piazza Dante, Centro Culturale San Domenico, 95024, Canicatti",37.3570207,13.84699568
409,Italia,Messina,Altele,"Palazzo Zanca, Intrare din Via  San Camillo nr. 110/colț cu Via  Cavour, Sala Ovala ""Antonino Caponnetto"" 98122, Messina",38.19444974,15.55478117
410,Italia,Milano,Altele,"Via Ruggero Boscovich nr. 42,  Milano-Centro Socio Ricreativo Ricordi Milan, CAP 20124",45.48036254,9.20656449
411,Italia,Milano,Altele,"Via Ruggero Boscovich nr. 42,  Milano-Centro Socio Ricreativo Ricordi Milan, CAP 20124",45.48025933,9.20682473
412,Italia,Milano,Altele,"Via Ruggero Boscovich nr. 42,  Milano-Centro Socio Ricreativo Ricordi Milan, CAP 20124",45.48043767,9.2064263
413,Italia,Milano,Altele,"Via Ruggero Boscovich nr. 42,  Milano-Centro Socio Ricreativo Ricordi Milan, CAP 20124",45.48051329,9.20626134
414,Italia,Bergamo,Altele,"Via Caprera 17, 24127 Bergamo",45.6820075,9.6586172
415,Italia,Bergamo,Altele,"Via Caprera 17, 24127 Bergamo",45.6820075,9.6586172
416,Italia,Brescia,Altele,"Piazza Luigi Buffoli 16, 25127 Brescia",45.55224058,10.19174862
417,Italia,Brescia,Altele,"Piazza Luigi Buffoli 16, 25127 Brescia",45.55224058,10.19174862
418,Italia,Bolzano,Altele,"Via Dolomiti 14, 39100 Bolzano",46.49515045,11.32316619
419,Italia,Cles,Altele,"Via Tiberio Claudio 22, 38023 Cles",46.364517,11.03152415
420,Italia,Como,Altele,"Via Collegio Dei Dottori 9, 22100 Como",45.81008843,9.08263315
421,Italia,Crema,Altele,"Via Giacomo Matteotti 47, 26013 Crema",45.36080151,9.68886577
422,Italia,Cremona,Altele,"Piazza Aldo Moro 16, 26100 Cremona",45.15481714,10.00295767
423,Italia,Lodi,Altele,"Via Paolo Gorini 21, 26900 Lodi",45.31150429,9.5074396
424,Italia,Monza,Altele,"Via D`Annunzio 35, 20900 Monza",45.56344044,9.26486596
425,Italia,Monza,Altele,"Via D`Annunzio 35, 20900 Monza",45.56344044,9.26486596
426,Italia,Monza,Altele,"Via D`Annunzio 35, 20900 Monza",45.5634182,9.2650002
427,Italia,Mantova,Altele,"Via Facciotto 7, 46100 Mantova",45.14563557,10.78703731
428,Italia,Montichiari,Altele,"Via Trieste 26, 25018 Montichiari",45.41224707,10.39189701
429,Italia,Pavia,Altele,"Via Ezechiele Acerbi 27, 27100 Pavia",45.1995139,9.1617913
430,Italia,Romano di Lombardia,Altele,"Piazza Roma 1, 24058 Romano di Lombardia",45.52120178,9.75589538
431,Italia,Rovereto,Altele,"Via Benacense 33,  38068 Rovereto",45.87992139,11.03384746
432,Italia,Sesto San Giovanni,Altele,"Via Maestri del Lavoro 10, 20099 Sesto San Giovanni",45.52997519,9.23136141
433,Italia,Trento,Altele,"Via del Loghet 65, 38121 Trento",46.12078049,11.09315615
434,Italia,Varese,Altele,"Via Oriani 121, 21100 Varese",45.816492,8.82076482
435,Italia,Torino,Altele,"Sala Polivalente, Via  Leoncavallo n. 17, cod poștal  10154, Torino",45.08566386,7.6976929
436,Italia,Torino,Altele,"Sala Polivalente, Via  Leoncavallo n. 17, cod poștal  10154, Torino",45.08566386,7.6976929
437,Italia,Torino,Altele,"Sala Polivalente, Via  Leoncavallo n. 17, cod poștal  10154, Torino",45.08566386,7.6976929
438,Italia,Torino,Altele,"Sala Congressi, Via Millio n. 20, cod poștal  10141, Torino",45.0579553,7.65188707
439,Italia,Torino,Altele,"Sala Congressi, Via Millio n. 20, cod poștal  10141, Torino",45.05785602,7.65190882
440,Italia,Torino,Altele,"Ex Centro Orientamento  Scolastico Professionale (C.O.S.P.) Via Bardassano, 5/a, Torino (TO), cod poștal 10132",45.06719419,7.7113312
441,Italia,Alba,Altele,"Località Piana Biglini (ex scuola infirmieristica), Corso Unità d’Italia n. 76,  cod poștal 12051, Alba (CN)",44.70875788,8.0018762
442,Italia,Alessandria,Altele,"Sala riunioni - Ex Circoscrizione Europista (Taglieria del Pelo) - via Wagner 38/D, Alessandria (AL)  cod poștal 15121",44.90552437,8.61634496
443,Italia,Aosta,Altele,"Salone della Biblioteca comunale, Viale Europa n. 5, Aosta (AO)  cod poștal, 11100",45.73402808,7.29707831
444,Italia,Asti,Altele,"Salone Consiliare (c/o Palazzo della Provincia di Asti), Piazza  Alfieri nr 33, Asti (AT), cod poștal 14100",44.89912447,8.20735719
445,Italia,Biella,Altele,"Agora Palace Hotel, Sala  Lamarmora, Via Alfonso  Lamarmora n. 13/A, cod poștal  13900, Biella (BI)",45.56170466,8.05600904
446,Italia,Carmagnola,Altele,"Via Bobba 6, Carmagnola, cod poștal 10022",44.84725115,7.72037075
447,Italia,Chieri,Altele,"Auditorium Leo Chiosso (ex  Sala Conceria), Via Conceria, 2, Chieri, cod poștal 10023",45.0130916,7.82008919
448,Italia,Chivasso,Altele,"Via Baraggino n. 76, c/o Campus Associazioni ex TAV, casetta 00, cod poștal 10034, Chivasso",45.20299026,7.88530341
449,Italia,Cirie,Altele,"Sala Conferenze, Centro Socio Culturale, Corso Nazioni Unite n. 32, cod poștal 10073 Ciriè",45.23579548,7.60695933
450,Italia,Collegno,Altele,"PalaCollegno, Via Antica di Rivoli n. 21, Collegno (TO) cod poștal 10093",45.08222176,7.56076764
451,Italia,Cuneo,Altele,"Salone del Meet, Via Carlo  Sigismondo Leutrum, n. 7,  Cuneo (CN) cod poștal 12100",44.39546768,7.55195457
452,Italia,Genova,Altele,"Sala Colombo c/o atrio Regione Liguria, Via Fieschi n. 15, cod poștal 16121 Genova (GE)",44.40367993,8.93511127
453,Italia,Imperia,Altele,"Lungomare Marina d`Italia, Molo San Lazzaro, Locale artigianale nr. 4, cod poștal 18100, Imperia (IM)",43.88088405,8.02183653
454,Italia,Ivrea,Altele,"Ex Campo Helios Rocco, Sede  Alpini, Gruppo di San Bernardo,  Cantone Aprato Arbore, Ivrea  (TO), cod poștal 10015",45.43243097,7.87874152
455,Italia,La Spezia,Altele,"Centro Civico Nord, Largo Vivaldi n. 2, Fossitermi, cod poștal 19122 La Spezia (SP)",44.11513928,9.8129843
456,Italia,Moncalieri,Altele,"Salone Polivalente Centro  Polifunzionale di Santa Maria,  Via Santa Maria n. 27,  Moncalieri (TO), cod poștal  10024",44.99355361,7.66544814
457,Italia,Mondovi,Altele,"Salone del Centro Anziani di  Carassone, Via del Campo n. 5,   Mondovì (CN), cod poștal  12084",44.39832482,7.8322665
458,Italia,Nichelino,Altele,"Sala Mattei del Comune, Piazza G. di Vittorio n. 1, piano 2°, cod poștal 10042 Nichelino (TO)",44.99516197,7.64745581
459,Italia,Novara,Altele,"Parohia ortodoxă Sfântul  Nectarie Taumaturgul, Corso  Trieste, n. 105, cod poștal   28100 Novara (NO)",45.45364295,8.6546246
460,Italia,Pinerolo,Altele,"Centro Incontro, Via Clemente  Lequio n. 36, cod poștal 10064, Pinerolo (TO)",44.8848921,7.32943714
461,Italia,Sanremo,Altele,"Sala parter Palafiori, Corso G.  Garibaldi, cod poștal 18038 Sanremo (IM)",43.81923427,7.77919811
462,Italia,Savona,Altele,"Asilo delle Piramidi, ex sede del consiglio  V° Circoscrizione, Corso Giuseppe Mazzini nr. 25, Savona (SV), cod poștal 17100",44.30368364,8.47702689
463,Italia,Settimo Torinese,Altele,"Oratorio San Pietro in Vincoli, ingresso da Via Teologo Giovanni Antonino n. 9/B, angolo Via Dante Alighieri cod poștal 10036 Settimo Torinese  (TO)",45.13685149,7.77042749
464,Italia,Susa,Altele,"Sala del Castello della Contessa Adelaide, Via Impero Romano n.  2, cod poștal 10059 Susa (TO)",45.13585798,7.04414544
465,Italia,Tortona,Altele,"Sala Polifunzionale Mons.  Francesco Remotti, ex Caserma Passalacqua, Via Milazzo n. 1, cod poștal 15057 Tortona (AL)",44.89344846,8.8595754
466,Italia,Verbania,Altele,"Centro Sociale Renco, Via  Renco n. 36, cod poștal 28923 Pallanza (VB)",45.94822447,8.55220388
467,Italia,Vercelli,Altele,"Palazzo Comunale, sala parter,  Piazza del Municipio n. 2,  Vercelli (VC), cod poștal 13100",45.32424987,8.42322958
468,Italia,Trieste,Consulat General,"Via Udine 11, 34132 Trieste",45.65766849,13.7739713
469,Italia,Cervignano del Friuli,Altele,"Via Carnia 22, 33052 Cervignano del Friuli",45.83317458,13.33274468
470,Italia,Udine,Altele,"Sala Polifunzionale Sguerzi, Via S. Stefano 5A, 33100 Udine",46.04978429,13.22677274
471,Italia,Pordenone,Altele,"Piazza Don Giuseppe Lozer n.1,  33170 Pordenone",45.9683615,12.6789108
472,Italia,Prata di Pordenone,Altele,"Ex scuola primaria Villanova di Prata, Via Monde 2, 33080 Prata di Pordenone",45.86595077,12.56714482
473,Italia,Venezia,Institut cultural român,"Cannaregio, 2214, 30121 Venezia",45.44311787,12.33178287
474,Italia,San Donà di Piave,Altele,"Casa Saretta, Via Pralungo 12, 30027 San Donà di Piave",45.63497691,12.56444974
475,Italia,Treviso,Altele,"Sala Conferenze presso lHotel  Maggior Consiglio, Via  Terraglio 140, 31100 Treviso",45.64790169,12.24109469
476,Italia,Castelfranco Veneto,Altele,"Centro Culturale Due Mulini,  Via Marsala 1/a, 31033 Castelfranco Veneto",45.67713129,11.9186027
477,Italia,Oderzo,Altele,"Via Comunale di Faè 53, 31046 Oderzo",45.76106769,12.46750425
478,Italia,Padova,Altele,"Sala ""F. Barison"" Piazza Metelli 1, 35136 Padova",45.42591,11.84506
479,Italia,Albignasego,Altele,"Sala Riunioni del Municipio, Via Milano 7, 35020 Albignasego",45.34583092,11.87420413
480,Italia,Cadoneghe,Altele,"Via Pio X 1/A, 35010 Cadoneghe",45.43633667,11.9625786
481,Italia,Limena,Altele,"Sala Barchessina, Via Roma 44, 35010 Limena",45.47897018,11.84395911
482,Italia,Abano Terme,Altele,"Via San Pio X, 3, 35031 Abano Terme",45.3571764,11.801647
483,Italia,Rovigo,Altele,"Via Ramazzina n. 2, 45100 Granzette, Rovigo",45.095118,11.7718588
484,Italia,Verona,Altele,"Sala della Pace, Via Tevere 38, 37136 Verona",45.41751667,10.96080758
485,Italia,Verona,Altele,"Ex Sala Consiliare, Piazza  Madonna di Campagna 1/a,  37132 Verona",45.43062129,11.04986614
486,Italia,Villafranca di Verona,Altele,"Centro Sociale, Via Rinaldo 9/A, 37069 Villafranca di Verona",45.35009359,10.84538721
487,Italia,Valeggio sul Mincio,Altele,"Localita San Graziano 8, presso  Mercato ortofrutticolo, 37067 Valeggio sul Mincio",45.34284332,10.73835285
488,Italia,Cerea,Altele,"Sala Civica, Via Olmo 1, frazione di Aselogna, 37053 Cerea",45.19176554,11.31116298
489,Italia,Vicenza,Altele,"Centro Civico Riviera Berica,  Via Enrico De Nicola n. 8,  36100 Vicenza",45.5079627,11.56726355
490,Italia,Schio,Altele,"Sala Norma Cossetto, Via Pasini n. 47, 36015 Schio",45.71275918,11.3567252
491,Japonia,Tokyo,Ambasadă,"3-16-19 Nishi-Azabu, Minatoku, Tokyo, 106-0031",35.65799171,139.72444682
492,R.Kazahstan,Astana,Ambasadă,"str. Saraișâk 28, cod poștal 010000, Astana",51.13408591,71.42618402
493,Kenya,Nairobi,Ambasadă,"Eagle Park Estate along PanAfrican Insurance Av., Block  7785/1284, Runda, Nairobi",-1.2078302,36.81598214
494,Kuweit,Kuweit,Ambasadă,"Kaifan, Block 4, strada Mina, Villa 34, cod poștal 71804",29.33500301,47.96409532
495,Republica Libaneză,Beirut,Ambasadă,"Baabda, Rue du Palais  Presidentiel, Street 68, nr.30",33.84402566,35.53856976
496,Lituania,Vilnius,Ambasadă,"Gaono g. 6, LT- 01131, Vilnius",54.6806198,25.28642884
497,Letonia,Riga,Altele,"Brivibas iela 97, Riga LV 1001",56.9611429,24.1323296
498,Luxemburg,Luxemburg,Altele,"Hotel Sofitel Luxembourg  Europe (Kirchberg), Rue du Fort  Niedergrünewald, 6, cod poștal  2226, Luxembourg",49.62068716,6.14400953
499,Luxemburg,Luxemburg,Altele,"Hotel Sofitel Luxembourg  Europe (Kirchberg), Rue du Fort  Niedergrünewald, 6, cod poștal  2226, Luxembourg",49.62057852,6.14418021
500,Luxemburg,Luxemburg,Altele,"Hotel Sofitel Luxembourg  Europe (Kirchberg), Rue du Fort  Niedergrünewald, 6, cod poștal  2226, Luxembourg",49.62044279,6.14420145
501,Macedonia de Nord,Skopje,Ambasadă,"Strada Rajko Zinzifov, nr. 42, 1000",41.99763897,21.41856191
502,Malaysia,Kuala Lumpur,Ambasadă,"114, Jalan Damai (off Jalan Ampang), 55000, Kuala Lumpur",3.16316756,101.73026327
503,Regatul Unit al Marii Britanii și Irlandei de Nord,Londra-Westminster,Institut cultural român,"Romanian Cultural Institute, 1  Belgrave Square, Belgravia,  London SW1X 8PH",51.5002701,-0.1540188
504,Regatul Unit al Marii Britanii și Irlandei de Nord,Londra-Westminster,Institut cultural român,"Romanian Cultural Institute, 1  Belgrave Square, Belgravia,  London SW1X 8PH",51.5002701,-0.1540188
505,Regatul Unit al Marii Britanii și Irlandei de Nord,Londra-Tottenham Court Road,Altele,"The Swiss Church in London, 79  Endell Street, London  WC2H9DY",51.51533056,-0.12621075
506,Regatul Unit al Marii Britanii și Irlandei de Nord,Londra-White City,Altele,"Brickfields Hall, GradPad 80, Wood Lane, London W12 0BZ",51.51646506,-0.22511894
507,Regatul Unit al Marii Britanii și Irlandei de Nord,Londra-Newham,Altele,"Ascot Community Centre, Star  Lane, Canning Town, London  E16 4PR",51.51950905,0.01189709
508,Regatul Unit al Marii Britanii și Irlandei de Nord,Londra-Stratford,Altele,"The Dome, University of East  London, Stratford Campus,  Water Lane London E15 4LZ",51.54411536,0.00953827
509,Regatul Unit al Marii Britanii și Irlandei de Nord,Londra-Harrow,Altele,"Harrow Leisure Centre,  Christchurch Ave, Sports Hall 3,  Harrow, London HA3 5BD",51.59261364,-0.327599
510,Regatul Unit al Marii Britanii și Irlandei de Nord,Londra-Harrow,Altele,"The Sangat Centre, 28A Sancroft  Road, Harrow, London HA3  7NS",51.59755754,-0.32716767
511,Regatul Unit al Marii Britanii și Irlandei de Nord,Londra-Harrow,Altele,"St Panteleimon Greek Orthodox  Community in Harrow and  Districts 660 Kenton Road (at  the back of the church), Harrow, London HA3 9QN",51.58581803,-0.2865261
512,Regatul Unit al Marii Britanii și Irlandei de Nord,Londra-Wembley,Altele,"Sudbury Primary School,  Watford Road, Wembley,  London HA0 3EY",51.55935325,-0.31966258
513,Regatul Unit al Marii Britanii și Irlandei de Nord,Londra-Brent,Altele,"Bridge Park Community Leisure  Centre, Brentfield, London  NW10 0RG",51.54322927,-0.27135453
514,Regatul Unit al Marii Britanii și Irlandei de Nord,Londra- Brent,Altele,"Bridge Park Community Leisure  Centre, Brentfield, London  NW10 0RG",51.54337099,-0.27156466
515,Regatul Unit al Marii Britanii și Irlandei de Nord,Londra-Redbridge,Altele,"Redbridge Central Library, Clements Road, The Gloucester and York room, Ilford, London IG1 1EA",51.55814599,0.07501723
516,Regatul Unit al Marii Britanii și Irlandei de Nord,Londra-Redbridge,Altele,"Kenneth More Theatre, Oakfield Rd, Ilford IG1 1BT",51.5585123,0.0752235
517,Regatul Unit al Marii Britanii și Irlandei de Nord,Londra-Waltham Forest,Altele,"Restaurant Ambassador, 270  High Road, Leytonstone,  London E11 3HS",51.5553817,0.0057252
518,Regatul Unit al Marii Britanii și Irlandei de Nord,Londra-Waltham Forest,Altele,"Walthamstow Leisure Centre  243 Markhouse Road, London E17 8RN",51.5760183,-0.0287788
519,Regatul Unit al Marii Britanii și Irlandei de Nord,Londra-Barking and Dagenham,Altele,"The Wilds  Ecology Centre  (Barking Riverside), Northgate Rd, Barking IG11 0SQ",51.5254201,0.1246706
520,Regatul Unit al Marii Britanii și Irlandei de Nord,Londra-Barking and Dagenham,Altele,"MAKE IT Barking, Factory 15  Ground Floor, 15 Linton Rd.,  Barking IG11 8HE",51.53899944,0.07818065
521,Regatul Unit al Marii Britanii și Irlandei de Nord,Londra-Barnet,Altele,"The Old Library, The  Concourse, Grahame Park,  London NW9 5XA",51.60180091,-0.24509583
522,Regatul Unit al Marii Britanii și Irlandei de Nord,Londra-Hounslow,Altele,"WeAre1 Community Care, Alf  Chandler Centre, Benson Cl,  Hounslow TW3 3QX",51.46555659,-0.3728354
523,Regatul Unit al Marii Britanii și Irlandei de Nord,Londra-Hounslow,Altele,"St Marys Church (St Mary’s  Millennium Hall), Spring Grove,  Osterley Road, Isleworth TW7  4PW",51.48107127,-0.34279469
524,Regatul Unit al Marii Britanii și Irlandei de Nord,Londra-Haringey,Altele,"Green Rooms Hotel, 13-27  Station Rd, 3rd floor, London  N22 6UW",51.59693928,-0.11081432
525,Regatul Unit al Marii Britanii și Irlandei de Nord,Londra-Enfield,Altele,"Dharma Hall Venue, 442-446  Hertford Road, Enfield, London  EN3 5QH",51.66488563,-0.04432263
526,Regatul Unit al Marii Britanii și Irlandei de Nord,Londra-Greenwich,Altele,"Forum at Greenwich - Caledonian Hall, Trafalgar  Road, Greenwich, London SE10  9EQ",51.48531377,0.0048462
527,Regatul Unit al Marii Britanii și Irlandei de Nord,Londra-Romford,Altele,"Chadwell Heath Community  Centre, 255 High Road,  Romford, London RM6 6AS",51.57255759,0.1431031
528,Regatul Unit al Marii Britanii și Irlandei de Nord,Londra-Croydon,Altele,"London Croydon Aerodrome Hotel, 680 Purley Way, Dakota meeting room, Croydon, London CR9 4LT",51.35721309,-0.11712649
529,Regatul Unit al Marii Britanii și Irlandei de Nord,Londra-Richmond,Altele,"Sudbrook School, The Village Hall, Bute Avenue, Petersham,  Richmond, London TW10 7AX",51.44328484,-0.30087873
530,Regatul Unit al Marii Britanii și Irlandei de Nord,Londra-Hillingdon,Altele,"Navnat Centre, Printing House Lane, Hayes,  London UB3 1AR",51.50888601,-0.42526719
531,Regatul Unit al Marii Britanii și Irlandei de Nord,Londra-Hillingdon,Altele,"The Lightinghouse Centre, 51  Queens Walk,  South Ruislip,  London HA4 0NL",51.56202921,-0.39157919
532,Regatul Unit al Marii Britanii și Irlandei de Nord,Londra-Lewisham,Altele,"Goldsmiths, University of  London, Richard Hoggart  Building, Great Hall/RHB 356, 8  Lewisham Way, London SE14  6NW",51.47440897,-0.03516558
533,Regatul Unit al Marii Britanii și Irlandei de Nord,Londra-Merton,Altele,"Banner, Wimbletech  Zone 2, Wimbledon Hill Road (entrance  via Compton Road),  London SW19 7NB",51.4225261,-0.20775746
534,Regatul Unit al Marii Britanii și Irlandei de Nord,Londra-Bromley,Altele,"Avis Hotel Ltd, 33 Rodway  Road, Bromley, Kent, London  BR13JP",51.41198166,0.02140493
535,Regatul Unit al Marii Britanii și Irlandei de Nord,Londra-Southwark,Altele,"Pembroke House, 80 Tatum Street, London SE17 1QR",51.4905662,-0.08529837
536,Regatul Unit al Marii Britanii și Irlandei de Nord,Londra-Wandsworth,Altele,"Studio 25, 4 Royal Victoria  Patriotic Building, John Archer  Way, London SW18 3SX",51.45339417,-0.17440163
537,Regatul Unit al Marii Britanii și Irlandei de Nord,Londra-Bexley,Altele,"The City of God 193 Crayford  Road, Crayford, London DA1  4HA",51.45148176,0.17898596
538,Regatul Unit al Marii Britanii şi Irlandei de Nord,Basildon,Altele,"Miorita Mediterranean Grays, 4  Cromwell Road, Grays RM17  5HF",51.47956944,0.32537627
539,Regatul Unit al Marii Britanii şi Irlandei de Nord,Basildon,Altele,"Best Western The Thurrock  Hotel, Ship Ln, Aveley, Purfleeton-Thames, Purfleet RM19 1YN",51.48867195,0.26531487
540,Regatul Unit al Marii Britanii şi Irlandei de Nord,Bedford,Altele,"Mercure Bedford Centre Hotel - Pilgrim Suite, 2 St Marys St,  Bedford MK42 0AR",52.13391019,-0.46570666
541,Regatul Unit al Marii Britanii şi Irlandei de Nord,Bournemouth,Altele,"Mad4Dance Studio, 61-63  Bargates, Christchurch BH23  1QE",50.73740135,-1.78055082
542,Regatul Unit al Marii Britanii şi Irlandei de Nord,Brighton And Hove,Altele,"Holiday Inn Brighton - Seafront  - Glyndebourne Suite, 137 Kings  Rd, Brighton and Hove,  Brighton BN1 2JF",50.8223888,-0.15245903
543,Regatul Unit al Marii Britanii şi Irlandei de Nord,Bristol,Altele,"Holiday Inn Bristol City Centre,  Bond St, St Pauls, Bristol BS1  3LE",51.4598625,-2.589358
544,Regatul Unit al Marii Britanii şi Irlandei de Nord,Bristol,Altele,"The Harbourside Pavilion, 1  Hannover Quay,  Harbourside, Bristol BS1 5JE",51.44816369,-2.6016829
545,Regatul Unit al Marii Britanii şi Irlandei de Nord,Cambridge,Altele,"St. Lukes Church Centre - The  Old School, Victoria Rd, Arbury,  Cambridge CB4 3DZ",52.21580521,0.11635086
546,Regatul Unit al Marii Britanii şi Irlandei de Nord,Canterbury,Altele,"Tur 1: University of Kent, Sports  Centre, (Entrance to car park off  Park Wood Rd), CT2 7NL  Tur 2: University of Kent,  Darwin Conference Suite, Darwin College, Darwin Road, Canterbury, Kent CT2 7NY",51.2972726,1.06458408
547,Regatul Unit al Marii Britanii şi Irlandei de Nord,Cardiff,Altele,"Cardiff Metropolitan University,  Conference Rooms 2&3, Cyncoed Campus, Cyncoed Road, Cardiff, CF23 6XD",51.51011256,-3.16137283
548,Regatul Unit al Marii Britanii şi Irlandei de Nord,Colchester,Altele,"HeadGate Theatre - Rehearsal  Room, 14 Chapel St North,  Colchester, Essex CO2 7AT",51.88707328,0.89694089
549,Regatul Unit al Marii Britanii şi Irlandei de Nord,Cornwall,Altele,"Roswarne House, Tehidy Rd, Camborne TR14 8FE",50.21681859,-5.29793041
550,Regatul Unit al Marii Britanii şi Irlandei de Nord,Crawley,Altele,"Crowne Plaza London Gatwick  Hotel - Windsor Suite, Langley Drive, Crawley RH11 7SX",51.12517832,-0.19015268
551,Regatul Unit al Marii Britanii şi Irlandei de Nord,Epping,Altele,"Regus - Epping, The Civic  Building, 323 High St, Epping  CM16 4BZ",51.70126945,0.11433033
552,Regatul Unit al Marii Britanii şi Irlandei de Nord,Exeter,Altele,"Exeter Community Centre, 17  St. Davids Hill, Exeter, EX4  3RG",50.72533227,-3.5374562
553,Regatul Unit al Marii Britanii şi Irlandei de Nord,Gloucester,Altele,"Mercure Gloucester Bowden  Hall Hotel, Bondend Ln, Upton  St Leonards, Gloucester GL4  8ED",51.83409874,-2.1883307
554,Regatul Unit al Marii Britanii şi Irlandei de Nord,Hatfield,Altele,"White Hart Queensway, Hatfield, AL10 0LW",51.76276954,-0.22515807
555,Regatul Unit al Marii Britanii şi Irlandei de Nord,Hereford,Altele,"Hereford Racecourse, Hummingbird room, Roman Road, Hereford HR4 9QU",52.07497603,-2.72916415
556,Regatul Unit al Marii Britanii şi Irlandei de Nord,Ipswich,Altele,"Novotel Ipswich Centre, Grey Friars Rd, Ipswich IP1 1UP",52.0533843,1.15292324
557,Regatul Unit al Marii Britanii şi Irlandei de Nord,Jersey,Altele,"St Heliers Town Hall, 50 York Street, St Helier JE4 8PA",49.18588191,-2.10974114
558,Regatul Unit al Marii Britanii şi Irlandei de Nord,Luton,Altele,"Sundon Park Baptist Church,  Main Church Hall, 244 Sundon  Road, Luton, LU3 3AL",51.91683873,-0.47061998
559,Regatul Unit al Marii Britanii şi Irlandei de Nord,Luton,Altele,"The Chiltern Hotel, Waller Avenue, Luton LU4 9RU",51.89263405,-0.45203109
560,Regatul Unit al Marii Britanii şi Irlandei de Nord,Maidstone,Altele,"Orida Hotel Maidstone, Bearsted Rd, Maidstone, Kent ME14 5AA",51.2854401,0.5458381
561,Regatul Unit al Marii Britanii şi Irlandei de Nord,Milton Keynes,Altele,"Margaret Powell House, 423  Midsummer Blvd, Milton  Keynes MK9 3BN",52.04008129,-0.76186122
562,Regatul Unit al Marii Britanii şi Irlandei de Nord,Milton Keynes,Altele,"Margaret Powell House, 423  Midsummer Blvd, Milton  Keynes MK9 3BN",52.03996949,-0.7621773
563,Regatul Unit al Marii Britanii şi Irlandei de Nord,Norwich,Altele,"Norman Centre, Appleyard and  Bignold Rooms, Bignold Road,  Norwich NR3 2QZ",52.65088283,1.27361231
564,Regatul Unit al Marii Britanii şi Irlandei de Nord,Oxford,Altele,"St Peters Church - Old School  Room, First Turn, Wolvercote,  Oxford OX2 8AQ",51.78494774,-1.28116148
565,Regatul Unit al Marii Britanii şi Irlandei de Nord,Peterborough,Altele,"Peterborough Asylum and  Refugee Community Association  (PARCA), Unity Hall ,  Northfield Road, Peterborough,  PE1 3QH",52.58989149,-0.24927639
566,Regatul Unit al Marii Britanii şi Irlandei de Nord,Plymouth,Altele,"The Duke of Cornwall Hotel,  Millbay Road, Plymouth,  Devon, PL1 3LG",50.36770853,-4.14994946
567,Regatul Unit al Marii Britanii şi Irlandei de Nord,Portsmouth,Altele,"Havant Methodist Church,  Petersfield Road, Havant PO9  2HU",50.85856389,-0.98241775
568,Regatul Unit al Marii Britanii şi Irlandei de Nord,Reading,Altele,"Reading Business Centre, 8th  Floor, Fountain House, 2 Queens  Walk, Reading RG1 7QF",51.45488148,-0.97732153
569,Regatul Unit al Marii Britanii şi Irlandei de Nord,Rugby,Altele,"The Grill Father, Restaurant  Romanesc, 233 Lawford Road,  Rugby CV2 12JG",52.37464967,-1.27989413
570,Regatul Unit al Marii Britanii şi Irlandei de Nord,Salisbury,Altele,"The Guildhall, Market Place, Salisbury, Wiltshire SP1 1JH",51.06899134,-1.79443972
571,Regatul Unit al Marii Britanii şi Irlandei de Nord,Southhampton,Altele,"Leonardo Hotel Southampton, 1  Charlotte Place, Southampton,  SO14 0TB",50.91089713,-1.40118209
572,Regatul Unit al Marii Britanii şi Irlandei de Nord,Stoke-On-Trent,Altele,"Casa Argeseana, 22 Huntbach  Street, Hanley, Stoke-on-Trent  ST1 2BL",53.02709639,-2.17270705
573,Regatul Unit al Marii Britanii şi Irlandei de Nord,Swansea,Altele,"Delta Hotels by Marriott Swansea, Trawler Rd, Maritime  Quarter, Swansea SA1 3SS",51.61388819,-3.94428273
574,Regatul Unit al Marii Britanii şi Irlandei de Nord,Swindon,Altele,"Blunsdon House Hotel, The  Ridge, Blunsdon, Wiltshire,  SN26 7AS",51.61419642,-1.78850616
575,Regatul Unit al Marii Britanii şi Irlandei de Nord,Taunton,Altele,"Albemarle Centre, Albemarle Road, Taunton TA1 1BA",51.0212197,-3.10415837
576,Regatul Unit al Marii Britanii şi Irlandei de Nord,Watford,Altele,"Leonardo Hotel Watford, Suite  3, 31 - 35 Clarendon Road, Watford, WD17 1JA",51.65829468,-0.39733433
577,Canada,Windsor,Altele,"Macdonald Windsor Hotel, 23 High Street, Windsor SL4 1LH",51.48233256,-0.60750669
578,Regatul Unit al Marii Britanii şi Irlandei de Nord,Woking,Altele,"ARCH Alpha Road Community  Hall, Alpha Road, Woking GU22  8HF",51.32581514,-0.53874049
579,Regatul Unit al Marii Britanii şi Irlandei de Nord,Worcester,Altele,"Worcester Racecourse,  Pitchcroft, Worcester WR1 3EJ",52.19659863,-2.23182147
580,Regatul Unit al Marii Britanii și Irlandei de Nord,Manchester,Consulat General,"9 Cooper Street, Manchester, M2  2FW",53.47930065,-2.24249237
581,Regatul Unit al Marii Britanii și Irlandei de Nord,Manchester,Consulat General,"9 Cooper Street, Manchester, M2  2FW",53.47930065,-2.24249237
582,Regatul Unit al Marii Britanii și Irlandei de Nord,Bolton,Altele,"Bolton Masonic Hall, Institute St, Bolton BL1 1PZ",53.57827737,-2.42427291
583,Regatul Unit al Marii Britanii și Irlandei de Nord,Newcastle upon Tyne,Altele,"Riverside Community Health  Project, Carnegie Building,  Atkinson Road, Benwell,  Newcastle upon Tyne, Tyne and  Wear, NE4 8XS",54.97033093,-1.66147626
584,Regatul Unit al Marii Britanii și Irlandei de Nord,Leeds,Altele,"St Aidans Church Leeds, Elford Place West, Leeds LS8 5QD",53.8126171,-1.520717
585,Regatul Unit al Marii Britanii și Irlandei de Nord,Leeds,Altele,"Horizon Leeds, 2 Brewery  Wharf, Kendall Street, Leeds,  LS10 1JR",53.7934704,-1.53877735
586,Regatul Unit al Marii Britanii și Irlandei de Nord,Liverpool,Altele,"Avenue HQ Mann Island, 17  Mann Island, Liverpool,  L3  1BP",53.40344221,-2.99354289
587,Regatul Unit al Marii Britanii și Irlandei de Nord,Preston,Altele,"The Catherine Beckett  Community Centre, Deepdale  Enclosure, 112 Deepdale Road,  Preston, PR1 5AR",53.76480668,-2.69179193
588,Regatul Unit al Marii Britanii și Irlandei de Nord,Hull,Altele,"Jubilee Central, 62 King Edward Street, Hull, HU1 3SQ",53.7459688,-0.34113043
589,Regatul Unit al Marii Britanii și Irlandei de Nord,Doncaster,Altele,"C-view, Church View, Doncaster, DN1 1AF",53.52585549,-1.13675096
590,Regatul Unit al Marii Britanii și Irlandei de Nord,Sheffield,Altele,"Mercure Sheffield St Paul’s  Hotel & Spa, 119 Norfolk St,  Sheffield City Centre, Sheffield  S1 2JE",53.38011078,-1.46858582
591,Regatul Unit al Marii Britanii și Irlandei de Nord,Nottingham,Altele,"Castle Cavendish Works,  Dorking Road, Radford, Nottingham, NG7 5PN",52.96122193,-1.17506133
592,Regatul Unit al Marii Britanii și Irlandei de Nord,Loughborough,Altele,"Fearon Hall, Rectory Road,  Loughborough, Leicestershire,  LE11 1PL",52.7752472,-1.20404041
593,Regatul Unit al Marii Britanii și Irlandei de Nord,Leicester,Altele,"Leicester Community Sports  Centre, 16 Commercial Square,  Leicester, LE2 7SR",52.61786589,-1.13387024
594,Regatul Unit al Marii Britanii și Irlandei de Nord,Wolverhampton,Altele,"GTG West Midlands, Bearing  Drive, Willenhall,  Wolverhampton, WV11 3SZ",52.59262025,-2.07299045
595,Regatul Unit al Marii Britanii și Irlandei de Nord,Walsall,Altele,"Romanian+ Community Centre,  Sneyd Hall Road, Bloxwich,  Walsall, WS3 2NN",52.6166982,-2.01452602
596,Regatul Unit al Marii Britanii și Irlandei de Nord,Birmingham,Altele,"Connected Life Church, George Road, Birmingham, B23 7RZ",52.52253686,-1.8699065
597,Regatul Unit al Marii Britanii și Irlandei de Nord,Birmingham,Altele,"The Midlands Greek & Cypriot  Association, Park Approach,  Birmingham, B23 7SJ",52.51472198,-1.86659255
598,Regatul Unit al Marii Britanii și Irlandei de Nord,Coventry,Altele,"Wava Hall, 31 Barras Green, Coventry, CV2 4LY",52.41565872,-1.48344454
599,Regatul Unit al Marii Britanii și Irlandei de Nord,Coventry,Altele,"Coventry Community Resource  Centre, Red Lane, Coventry,  CV6 5EE",52.4199466,-1.49604784
600,Regatul Unit al Marii Britanii și Irlandei de Nord,Northampton,Altele,"Northampton Bangladeshi  Association, NBA Gateway  Resource Centre, Mill Road,  Semilong, Northampton, NN2  6AX",52.24507624,-0.90124176
601,Regatul Unit al Marii Britanii și Irlandei de Nord,Northampton,Altele,"St Lukes Centre, Main Road, Northampton, NN5 6JB",52.2424585,-0.94245916
602,Regatul Unit al Marii Britanii şi Irlandei de Nord,Edinburgh,Consulat General,"Edinburgh, 7-9 N St David St,  EH2 1AW",55.95536223,-3.19450552
603,Regatul Unit al Marii Britanii şi Irlandei de Nord,Edinburgh,Altele,"Edinburgh, Conference Centre, 2 Johnston Terrace, EH1 2PW",55.94865514,-3.1944871
604,Regatul Unit al Marii Britanii şi Irlandei de Nord,Aberdeen,Altele,"Aberdeen, Leonardo Hotel  Aberdeen, Guild Street,  AB11  5RG",57.14460484,-2.09806846
605,Regatul Unit al Marii Britanii şi Irlandei de Nord,Glasgow,Altele,"Glasgow, Renfield Centre, 260 Bath Street, G2 4JP",55.86520859,-4.26684811
606,Regatul Unit al Marii Britanii şi Irlandei de Nord,Glasgow,Altele,"Glasgow, Fuse - Glasgow East  Youth Drop-In and Community  Project, 1567-1573 Shettleston  Road Glasgow G32 9AS",55.85084888,-4.15578168
607,Australia,Perth,Altele,"Perth, St John’s RC Academy /  North Inch Community Campus, Gowans Terrace,  PH1 5BF",56.41037969,-3.43807712
608,Regatul Unit al Marii Britanii şi Irlandei de Nord,Belfast,Altele,"Belfast, Clayton Hotel Belfast,  22-26 Ormeau Ave, BT2 8HS, Irlanda de Nord",54.59299209,-5.93082254
609,Regatul Unit al Marii Britanii şi Irlandei de Nord,Ballymena,Altele,"Ballymena, Adair Arms Hotel, 17 Ballymoney Road, BT43 5 BS, County Antrim",54.8660322,-6.27933828
610,Regatul Unit al Marii Britanii şi Irlandei de Nord,Portadown,Altele,"Portadown, Portadown Town  Hall, 15 Edward St, Craigavon  BT62 3LX",54.42246907,-6.44209228
611,Maroc,Rabat,Ambasadă,"10, Rue Ouazzane, Hassan,  Rabat, 10020",34.02104027,-6.82174155
612,Mexic,Ciudad de Mexico,Ambasadă,"Calle Sofocles, nr 311, colonia  Polanco, alcaldia Miguel  Hidalgo, cp 11560, Ciudad de  Mexico",19.43443025,-99.20497676
613,Republica Moldova,Chișinău,Consulat General,"Str Grigore Ureche nr. 2, Chișinău, MD-2001",47.02213903,28.85352626
614,Republica Moldova,Chișinău,Consulat General,"Str Grigore Ureche nr. 2, Chișinău, MD-2001",47.02213903,28.85352626
615,Republica Moldova,Chișinău,Altele,"Str Avram Iancu nr. 36, Chișinău, MD-2002",47.0202323,28.8499849
616,Republica Moldova,Chișinău,Altele,"Str. Mitropolit Gavriil  Bănulescu-Bodoni 59B,  Chișinău, MD-2005",47.0301755,28.8375714
617,Republica Moldova,Chișinău,Altele,"Str. Mitropolit Gavriil  Bănulescu-Bodoni 61A,  Chișinău, MD-2005",47.0314316,28.8387608
618,Republica Moldova,Chișinău,Altele,"Str. 31 August 1989 78A, Chișinău, MD-2012",47.0229142,28.8299748
619,Republica Moldova,Chișinău,Altele,"Str. 31 August 1989 78, Chișinău, MD-2012",47.0235139,28.8297544
620,Republica Moldova,Chișinău,Altele,"Str.  31 August 1989 78, Chișinău, MD-2012",47.0235139,28.8297544
621,Republica Moldova,Chișinău,Altele,"Str. Cebotari nr. 53, Chișinău,  MD-2012",47.02880449,28.82976964
622,Republica Moldova,Chișinău,Altele,"Str. Cebotari nr. 53, Chișinău,  MD-2012",47.02864681,28.82952109
623,Republica Moldova,Chișinău,Altele,"Str. Cebotari nr. 53, Chișinău,  MD-2012",47.02844213,28.829251
624,Republica Moldova,Chișinău,Altele,"Str. Mihai Kogălniceanu nr. 65, Chișinău, MD-2005",47.01940368,28.82493404
625,Republica Moldova,Chișinău,Altele,"Str. Mihai Kogălniceanu nr. 67, Chișinău, MD-2005",47.01920722,28.82525081
626,Republica Moldova,Chișinău,Altele,"Str. Nicolae Testemițeanu nr. 27, Chișinău, MD-2025",46.99534286,28.8338729
627,Republica Moldova,Chișinău,Altele,"Str. Studenților 9/9, Chișinău,  MD-2045",47.0619845,28.8699699
628,Republica Moldova,Chișinău,Altele,"Str. Studenților 9/9, Chișinău,  MD-2045",47.0619845,28.8699699
629,Republica Moldova,Chișinău,Altele,"Bd. Dacia nr. 41, Chișinău, MD2060",46.9809842,28.8650354
630,Republica Moldova,Chișinău,Altele,"Bd. Dacia nr. 41, Chișinău, MD2060",46.9809842,28.8650354
631,Republica Moldova,Chișinău,Altele,"Str.Suceava 103, Chișinău, MD2051",47.0311958,28.7889817
632,Republica Moldova,Chișinău,Altele,"Strada Mihai Viteazul 2, Chișinău, MD-2004",47.0341899,28.8199359
633,Republica Moldova,Hîncești,Altele,"Str. Chișinăului 9,  Hîncești,  MD-3401",46.9646018,28.3725419
634,Republica Moldova,Ialoveni,Altele,"Str. Alexandru cel Bun nr. 86, Ialoveni, MD-6801",46.9502032,28.773174
635,Republica Moldova,Nisporeni,Altele,"Str. Alexandru cel Bun nr. 55, Nisporeni, MD - 6401",47.08118369,28.18711109
636,Republica Moldova,Orhei,Altele,"Str. Chișinăului nr. 9, Orhei, MD - 3505",47.37028244,28.81905465
637,Republica Moldova,Orhei,Altele,"Str. Vasile Lupu 60/1, Orhei,  MD-3505",47.3793903,28.8247277
638,Republica Moldova,Căușeni,Altele,"Str. Păcii nr. 18, Căușeni, MD - 4300",46.6416113,29.4066892
639,Republica Moldova,Anenii Noi,Altele,"Str. Parcului nr. 13, Anenii Noi,  MD - 6500",46.882396,29.23632905
640,Republica Moldova,Bardar,Altele,"Str. Aurel David nr. 70, Bardar,  MD - 6811",46.90400263,28.67223093
641,Republica Moldova,Călărași,Altele,"Str. Mihai Eminescu nr. 19, Călarași, MD - 4404",47.25012191,28.31430025
642,Republica Moldova,Durlești,Altele,"Str. Alexandru cel Bun nr. 5, Durlești, MD - 2003",47.01854301,28.76442517
643,Republica Moldova,Strășeni,Altele,"Str. Mihai Eminescu nr. 37, Strășeni, MD - 3701",47.14691758,28.61561001
644,Republica Moldova,Stăuceni,Altele,"Str. Gratiesti nr. 3A, Stăuceni  MD - 4839",47.09097571,28.8669636
645,Republica Moldova,Băcioi,Altele,"Str. Independenței nr. 125, Băcioi, MD - 6812",46.91072239,28.89306315
646,Republica Moldova,Mereni,Altele,"Str. Ștefan cel Mare nr. 96,  Mereni, MD - 6526",46.96311652,29.05683883
647,Republica Moldova,Răzeni,Altele,"Str. Grigore Bivol nr. 2, Răzeni,  MD - 7727",46.77155887,28.89988289
648,Republica Moldova,Costești,Altele,"Str. Ștefan cel Mare și Sfînt nr. 68, Costești, MD - 6813",46.86766803,28.76965144
649,Republica Moldova,Ștefan Vodă,Altele,"Str. 31 August 1989 nr. 2, Ștefan Vodă, MD - 4201",46.51848346,29.66927191
650,Republica Moldova,Criuleni,Altele,"Str. 31 August 1989 nr. 102, Criuleni, MD - 4801",47.20328336,29.15599006
651,Republica Moldova,Bălți,Altele,"Str. Ștefan cel Mare, nr. 81, Bălți",47.7699361,27.9444221
652,Republica Moldova,Bălți,Altele,"Str. Ștefan cel Mare, nr. 81, Bălți",47.7699361,27.9444221
653,Republica Moldova,Briceni,Altele,"Bd. Independenței, nr. 30, Briceni",48.36146816,27.08481025
654,Republica Moldova,Ocnița,Altele,"Str. Mihai Viteazul, nr. 1, Ocnița",48.4130495,27.4708516
655,Republica Moldova,Edineț,Altele,"Str. Octavian Cirimpei, nr. 30, Edineț",48.1710874,27.2995243
656,Republica Moldova,Dondușeni,Altele,"Str.Independenței, nr.97, Dondușeni",48.2379481,27.6101983
657,Republica Moldova,Soroca,Altele,"Str.Independenței, nr. 74, Soroca",48.1280581,28.3067361
658,Republica Moldova,Rîșcani,Altele,"Str. 31 August, nr. 4, Rîșcani",47.954002,27.5587354
659,Republica Moldova,Drochia,Altele,"Bd. Independenței, nr. 15, Drochia",48.0336103,27.8205309
660,Republica Moldova,Florești,Altele,"Str.Speranța, nr. 1, Florești",47.8905192,28.3019208
661,Republica Moldova,Glodeni,Altele,"Str. Suveranității, nr. 2, Glodeni",47.7655088,27.5103601
662,Republica Moldova,Șoldănești,Altele,"Str. 31 August, nr. 2, Șoldănești",47.8027349,28.7909581
663,Republica Moldova,Sîngerei,Altele,"Str. Barbu Lăutaru, nr. 29,  Singerei",47.6397903,28.1455207
664,Republica Moldova,Rezina,Altele,"Str. 27 August 1989, nr.1, Rezina",47.7487738,28.9673618
665,Republica Moldova,Ungheni,Altele,"Str. Națională, nr.3, Ungheni",47.2160731,27.8084799
666,Republica Moldova,Ungheni,Altele,"Str. Națională, nr.3, Ungheni",47.2160731,27.8084799
667,Republica Moldova,Fălești,Altele,"Str. Alexandru Lăpușneanu, nr. 1, Fălești",47.5751162,27.7167288
668,Republica Moldova,Telenești,Altele,"Str. Ciprian Porumbescu, nr. 3, Telenești",47.5019771,28.3591335
669,Republica Moldova,Cahul,Altele,"Piața Independenței 1, cod poștal MD-3909",45.90475,28.19565
670,Republica Moldova,Cahul,Altele,"Piața Independenței 1, cod poștal MD-3909",45.90475,28.19565
671,Republica Moldova,Cantemir,Altele,"str. Ștefan Vodă, nr. 1, cod poștal  MD-7300",46.27809321,28.19934786
672,Republica Moldova,Carabetovca,Altele,"str. Ștefan cel Mare, nr. 38, cod poștal MD-6713",46.4130864,28.91192211
673,Republica Moldova,Cimișlia,Altele,"str. Ion Popușoi, nr. 2, cod poștal MD-4101",46.5204785,28.78578949
674,Republica Moldova,Comrat,Altele,"str. Tretiacov, nr. 36, cod poștal  MD-3805",46.30149376,28.65357511
675,Republica Moldova,Giurgiulești,Altele,"str. Independenței, nr. 27, cod poștal MD-5318",45.48203724,28.19546771
676,Republica Moldova,Leova,Altele,"str. Ștefan cel Mare, nr. 67, cod poștal MD-6301",46.48301989,28.25095466
677,Muntenegru,Podgorica,Ambasadă,"strada I Proleterske nr. 5,  Podgorica, cod poștal 81000",42.44801036,19.28070478
678,Nigeria,Abuja,Ambasadă,"76 Nelson Mandela Street,  Plot  498, Asokoro, Abuja",9.03776952,7.526365
679,Norvegia,Oslo,Altele,"Josefines gate 34, 0351",59.921803,10.723672
680,Norvegia,Oslo,Altele,"Refstadveien 27, 0589",59.941297,10.810886
681,Norvegia,Jessheim,Altele,"Leirvegen 6, 2066",60.126974,11.476988
682,Norvegia,Drammen,Altele,"Tollbugata 43, 3044",59.736861,10.210022
683,Norvegia,Kristiansand,Altele,"Lumberveien 35A, 4621",58.1238667,7.97037
684,Norvegia,Stavanger,Altele,"Heddeveien 141, 4034",58.89876704,5.72251187
685,Norvegia,Bergen,Altele,"Zander Kaaes gate 6, 5015",60.3907417,5.33434808
686,Norvegia,Skodje,Altele,"Niusvegen 3, 6260",62.50535157,6.686667
687,Norvegia,Trondheim,Altele,"Beddingen 1, 7042",63.43515961,10.41592092
688,Norvegia,Tromso,Altele,"Kaigata 6, 9008",69.64809336,18.95272241
689,Olanda,Haga,Altele,"Johan de Wittlaan 30, cod poștal 2517 JR, Den Haag",52.08972052,4.28251224
690,Olanda,Haga,Altele,"Johan de Wittlaan 30, cod poștal 2517 JR, Den Haag",52.08998572,4.2825092
691,Olanda,Haga,Altele,"Johan de Wittlaan 30, cod poștal 2517 JR, Den Haag",52.09028773,4.28252535
692,Olanda,Amsterdam,Altele,"Jodenbreestraat 25, cod poștal 1011 NH, Amsterdam",52.36869224,4.90382848
693,Olanda,Amsterdam,Altele,"Jodenbreestraat 25, cod poștal 1011 NH, Amsterdam",52.36869224,4.90382848
694,Olanda,Amsterdam,Altele,"Jodenbreestraat 25, cod poștal 1011 NH, Amsterdam",52.36869224,4.90382848
695,Olanda,Rotterdam,Altele,"Delftsestraat 5, cod poștal 3013 AB, Rotterdam",51.92522631,4.47641166
696,Olanda,Rotterdam,Altele,"Delftsestraat 5, cod poștal 3013 AB, Rotterdam",51.92522631,4.47641166
697,Olanda,Rotterdam,Altele,"Delftsestraat 5, cod poștal 3013 AB, Rotterdam",51.92522631,4.47641166
698,Olanda,Eindhoven,Altele,"Torenallee 24, cod poștal 5617 BD, Eindhoven",51.44660794,5.45817337
699,Olanda,Eindhoven,Altele,"Torenallee 24, cod poștal 5617 BD, Eindhoven",51.44660794,5.45817337
700,Olanda,Eindhoven,Altele,"Torenallee 24, cod poștal 5617 BD, Eindhoven",51.44660794,5.45817337
701,Olanda,Breda,Altele,"Bavelseparklaan 7, cod poștal 4817 ZX, Breda",51.58075755,4.83650006
702,Olanda,Breda,Altele,"Bavelseparklaan 7, cod poștal 4817 ZX, Breda",51.5805396,4.83691841
703,Olanda,Breda,Altele,"Bavelseparklaan 7, cod poștal 4817 ZX, Breda",51.58014245,4.83734452
704,Olanda,Groningen,Altele,"Zuiderweg 70/1, cod poștal 9744 AP, Groningen",53.20052983,6.51384717
705,Olanda,Groningen,Altele,"Zuiderweg 70/1, cod poștal 9744 AP, Groningen",53.20052983,6.51384717
706,Olanda,Utrecht,Altele,"Floraweg nr. 25, cod poștal 3542 DX, Utrecht",52.1207073,5.03821146
707,Olanda,Utrecht,Altele,"Floraweg nr. 25, cod poștal 3542 DX, Utrecht",52.1207073,5.03821146
708,Olanda,Den Bosch,Altele,"Marathonloop 1, cod poștal 5235 AA,  s-Hertogenbosch",51.722628,5.31517098
709,Olanda,Den Bosch,Altele,"Marathonloop 1, cod poștal 5235 AA,  s-Hertogenbosch",51.722628,5.31517098
710,Olanda,Maastricht,Altele,"Forum 100, cod poștal 6229 GV, Maastricht",50.83889833,5.7120445
711,Olanda,Enschede,Altele,"Hoge Bothofstraat 49, cod poștal 7511 ZA, Enschede",52.22306722,6.90383059
712,Sultanatul Oman,Muscat,Ambasadă,"Villa 2990, Way 2840, Shatti al Qurum, PC 103, Muscat",23.61256453,58.4581861
713,Republica Islamică Pakistan,Islamabad,Ambasadă,"Islamabad, Sector F-7/1, Street 30, House no. 5A",33.7142043,73.05178919
714,Palestina,Ramallah,Oficiu de Reprezentare,"Prico House Building, 2nd floor,  Al-Masyoun",31.89422608,35.19927551
715,Peru,Lima,Ambasadă,"Avenida Jorge Basadre 690, San Isidro, 15073, Lima",-12.09486351,-77.0390931
716,Polonia,Varșovia,Ambasadă,"ul.Fr.Chopina 10, cod poștal 00559, Varșovia",52.22287253,21.02184049
717,Polonia ,Cracovia,Altele,"ul. Rajska 1, cod poștal 31-124, Cracovia",50.06500493,19.92948664
718,Polonia ,Wrocław,Altele,"Plac Powstańców Warszawy 1, cod poștal 50-153, Wrocław",51.10998082,17.04965687
719,Polonia ,Gdańsk,Altele,"ul. Piekarnicza 16, cod poștal 80 -126, Gdańsk",54.35201401,18.5862039
720,Portugalia,Lisabona,Ambasadă,"Rua São Caetano, 5, 1200-828 Lisabona",38.709063,-9.163622
721,Portugalia,Lisabona,Secție Consulară,"Rua São Caetano, 5, 1200-828 Lisabona",38.709063,-9.163622
722,Portugalia,Lisabona,Institut cultural român,"Rua do Barão, 8-10, 1100-072 Lisabona",38.71006483,-9.13078499
723,Portugalia,Porto,Altele,"Fundação AEP, Avenida da  Boavista, 2671, 4100-135 Porto",41.16216078,-8.65513966
724,Portugalia,Santarém,Altele,"Pavilhão do Futuro, Campo  Emílio Infante da Câmara, 2000014 Santarém",39.22990815,-8.69122165
725,Portugalia,Setúbal,Altele,"Centro Multicultural de Setúbal,  Rua das Piteiras, 2910-638 Setúbal",38.52151737,-8.86272942
726,Portugalia,Loulé,Altele,"Convento Espírito Santo, Cerca do Convento, Sala 14, Praça da República 8100 Loulé",37.13901366,-8.02203186
727,Portugalia,Tavira,Altele,"Mercado da Ribeira, Loja 7, Rua  José Pires Padinha, 60, 8800-354 Tavira",37.12557624,-7.6475902
728,Portugalia,Lagos,Altele,"Paços do Concelho Séc. XXI, Praça do Município, 8600-293 Lagos (Primăria Municipală)",37.10829072,-8.67802639
729,Qatar,Doha,Secție Consulară,"Street 953 (Ibn Roshd Street),  Building No. 102, Onaiza 65, Dafna Area, Doha",25.33039122,51.50634785
730,Federația Rusă,Moscova,Ambasadă,"119590, Moscova,  Mosfilmovskaia uliţa nr. 64",55.71486375,37.51240113
731,Federația Rusă,Sankt Petersburg,Consulat General,"Str. Gorohovaia nr. 4, cod poștal 191186, Sankt Petersburg",59.93606997,30.3110216
732,Senegal,Dakar,Ambasadă,"Rue Ax9A, Point E, Dakar, 10700",14.70256279,-17.46205653
733,Serbia,Belgrad,Ambasadă,"Str. Mihaila Avramovica nr. 12, cod poștal 11040",44.76834384,20.45808024
734,Serbia,Vârșeț,Consulat General,"Trg Zelene Pijace, 3A, cod poștal 26300, Vârșeț",45.12306928,21.29583141
735,Serbia,Zaječar,Consulat General,"strada Kumanovska, nr. 45, cod poștal 19000, Zaječar",43.89728504,22.27471115
736,Serbia,Priștina,Biroul de Legătură,"Str. Azem Jashanica, nr. 44-46,  Arberia/Dragodan, cod poștal  10000, Priştina",42.66950673,21.15373459
737,Singapore,Singapore,Secție Consulară,"390 Havelock Rd, #03-05, cod poștal 169662",1.2896175,103.83589317
738,Siria,Damasc,Ambasadă,"strada Ibrahim Hanano nr. 8, cartier Malki",33.52313733,36.27986682
739,Republica Slovacă,Bratislava,Ambasadă,"Fraña Kraľa 11, Stare Mesto, 811 05 Bratislava",48.15257776,17.1048051
740,Slovenia,Ljubljana,Ambasadă,"Smrekarjeva 33a, 1107 Ljubljana",46.07218372,14.49325373
741,Spania,Madrid,Ambasadă,"Avenida de Alfonso XIII, 157, 28016 Madrid",40.46016928,-3.67846798
742,Spania,Madrid,Ambasadă,"Avenida de Alfonso XIII, 157, 28016 Madrid",40.46016928,-3.67846798
743,Spania,Madrid,Consulat General,"Avenida de la Albufera, 319, 28031 Madrid",40.38443577,-3.631897
744,Spania,Madrid,Consulat General,"Avenida de la Albufera, 319, 28031 Madrid",40.38443577,-3.631897
745,Spania,Madrid,Institut cultural român,"Plaza del Cordón, 1, bajo dcha., 28005 Madrid",40.41403887,-3.71029546
746,Spania,Madrid,Altele,"Calle de los Andaluces, 20,  Posterior, Puente de Vallecas,  28038 Madrid",40.39029035,-3.63820026
747,Spania,Madrid,Altele,"Calle de las Tubas, 9, Latina, 28054 Madrid",40.37098117,-3.76389956
748,Spania,Adeje,Altele,"Centro de Participación  Ciudadana y Convivencia, Calle Beneharo, 4, 38670 Adeje",28.12093275,-16.73726485
749,Spania,Alcala de Henares,Altele,"Centro Cívico La Galatea, Calle  Emilia Pardo Bazán, 3, 28806 Alcala de Henares",40.50370736,-3.37402223
750,Spania,Alcala de Henares,Altele,"Centro Cívico La Galatea, Calle  Emilia Pardo Bazán, 3, 28806 Alcala de Henares",40.50380523,-3.37405929
751,Spania,Alcorcon,Altele,"Centro Joven “Yolanda González”, Calle Maestro  Victoria, 22, 28923 Alcorcon",40.34488764,-3.82161016
752,Spania,Aranjuez,Altele,"Centro Social San Theodore  Stratelates, Camino del Mar Chico 21, 28300 Aranjuez",40.02398124,-3.60390578
753,Spania,Arganda del Rey,Altele,"Hotel B&B, Avenida de Madrid, 105, 28500 Arganda del Rey",40.30988763,-3.48107198
754,Spania,Arganda del Rey,Altele,"Hotel B&B, Avenida de Madrid, 105, 28500 Arganda del Rey",40.30988763,-3.48107198
755,Spania,Avila,Altele,"Centro de Exposiciones y Congresos Lienzo Norte - Sala de prensa, Avenida de Madrid 102, 05001 Avila",40.66052155,-4.70626552
756,Spania,Azuqueca de Henares,Altele,"El Foro, Calle Ciudad Real, s/n, 19200 Azuqueca de Henares",40.56529072,-3.26203093
757,Spania,Collado Villalba,Altele,"Hotel Galaico, Avenida Juan  Carlos I, 45, 28400 Collado Villalba",40.63458591,-4.01006899
758,Spania,Coslada,Altele,"Hotel AC Marriott Coslada  Aeropuerto, Cam. de las Rejas,  San Blas-Canillejas, 28022  Madrid",40.44508832,-3.54056336
759,Spania,Coslada,Altele,"Centro de negocios Coslada,  Calle de la Mancha, 1, 28823 Coslada",40.43056591,-3.5458534
760,Spania,Coslada,Altele,"Centro de negocios Coslada,  Calle de la Mancha, 1, 28823 Coslada",40.43084037,-3.54593048
761,Spania,Fuenlabrada,Altele,"FAPA Ginger de los Rios, Calle de Logroño, 2, 28941 Fuenlabrada",40.29343111,-3.80144479
762,Spania,Getafe,Altele,"Casa Nacional de Rumania,  Calle Greco s.n., 28904 Getafe",40.30110063,-3.73703277
763,Spania,Guadalajara,Altele,"Centro San José, Calle de  Atienza, 4, 19003 Guadalajara",40.62991568,-3.16940694
764,Spania,Las Palmas,Altele,"Oficinas Municipales del  Edificio Metropol, intrarea prin  Parque Romano, Calle León y Castillo, 270, 35005 Las Palmas de Gran Canaria",28.12491385,-15.42845119
765,Spania,Leganes,Altele,"Ayuntamiento de Leganés, Plaza Mayor, 1, 28911 Leganés",40.32599527,-3.76833709
766,Spania,Leon,Altele,"Centro de Mayores de Puente  Castro, Calle La Flecha, 11,  24005 León",42.57939567,-5.55725695
767,Spania,Maspalomas,Altele,"Estadio Municipal De  Maspalomas, Sala de Prensa,  Entrada Calle San Mateo s/n,  35100 Maspalomas",27.76581384,-15.58412405
768,Spania,Mostoles,Altele,"Centro Sociocultural Norte- Universidad, Avenida del  Alcalde de Móstoles, 34, 28933  Móstoles",40.3355788,-3.8669046
769,Spania,Pinto,Altele,"Ayuntamiento de Pinto, Plaza de la Constitución, 1, 28320 Pinto",40.24093419,-3.70031561
770,Spania,Rivas-Vaciamadrid,Altele,"Casa de Asociaciones, Avenida  Armando Rodríguez Vallina, s/n,  28523 Rivas-Vaciamadrid",40.36899372,-3.55041828
771,Spania,Salamanca,Altele,"Centro Municipal Integrado  Victoria Adrados, Avenida  Villamayor, 71, 37007  Salamanca",40.97110609,-5.67057076
772,Spania,San Martin de la Vega,Altele,"Avenida Abogados de Atocha,  15, 28330 San Martín de la Vega",40.21419103,-3.56796911
773,Spania,San Sebastian de los Reyes,Altele,"Centro de Formación  Ocupacional Marcelino  Camacho, Avenida Ramón y  Cajal, 5, et. 1, 28703 San Sebastián de los Reyes",40.5445801,-3.62100093
774,Spania,Santa Cruz de Tenerife,Altele,"Recinto Ferial, Calle Alcalde  Josė Emilio Garcia Gómez,  38005 Santa Cruz de Tenerife",28.4544088,-16.25795395
775,Spania,Soria,Altele,"Subdelegación del Gobierno,  Calle Alfonso VIII, 2, 42003 Soria",41.76365997,-2.46963177
776,Spania,Torrejon de Ardoz,Altele,"Centro Polivalente Abogados de  Atocha, Calle de Londres, 11B,  28850 Torrejón de Ardoz",40.46146633,-3.46763689
777,Spania,Torrejon de Ardoz,Altele,"Centro Polivalente Abogados de  Atocha, Calle de Londres, 11B,  28850 Torrejón de Ardoz",40.46153434,-3.46733686
778,Spania,Valdemoro,Altele,"Centro Municipal de Empresas de Valdemoro, Calle Gaspar  Bravo de Sobremonte, 8, 28341  Valdemoro",40.17365545,-3.66897331
779,Spania,Valladolid,Altele,"Centro Cívico Rondilla, Calle  Alberto Fernández, 3, 47010 Valladolid",41.6638228,-4.72595689
780,Spania,Velilla de San Antonio,Altele,"Centro de Asociaciones, Calle  Ventura Rodríguez, 7, 28891 Velilla de San Antonio",40.36560396,-3.48885635
781,Spania,Villanueva de la Canada,Altele,"Centro Cultural La Despernada,  Calle Olivar, 10, 28691  Villanueva de la Cañada",40.44959646,-4.00057486
782,Spania,Barcelona,Altele,"Hotel Torre Melina Gran Meliá  Av. Diagonal, 671, Les Corts,  08028 Barcelona",41.38156932,2.1088026
783,Spania,Barcelona,Altele,"Hotel SB Diagonal Zero, Plaza Llevant, s/n, 08019, Barcelona",41.41221378,2.21976344
784,Spania,Barcelona,Altele,"Hotel Silken Sant Gervasi,  Carrer de Sant Gervasi de  Cassoles, 26, Sarrià-Sant  Gervasi, 08022 Barcelona",41.40469122,2.13887307
785,Spania,Figueres,Altele,"Espai Empresarial ”Gran Firal”,  C/ Alemanya, nr. 18, sala 12  17600 Figueres",42.2627887,2.97857804
786,Spania,Lleida,Altele,"Lonja Mercolleida, Avinguda de Tortosa, 2, 25005, Lleida",41.6189095,0.63653135
787,Spania,Lleida,Altele,"Lonja Mercolleida, Avinguda de Tortosa, 2, 25005, Lleida",41.6189095,0.63653135
788,Spania,Girona,Altele,"Casa de la Cultura, Aula 4, Pl. de lHospital, 6, 17002 Girona",41.98151643,2.82114921
789,Spania,Girona,Altele,"Palau de Fires, Sala de Juntas,  Pg. de la Devesa, 34 – 36, 17001 Girona",41.98479309,2.81193045
790,Spania,Guissona,Altele,"Ayuntamiento, sala de consiliu,  Plaza Bisbe Benlloch, 1, 25210, Guissona",41.78466537,1.28784005
791,Spania,Lloret de Mar,Altele,"Centre Civic Can Carbó, Carrer de Barcelona, 18, 17310 Lloret de Mar",41.70573229,2.84460592
792,Spania,Manresa,Altele,"Palau Firal, Calle Castelladral 57, 08243, Manresa, Spania",41.73869759,1.84717697
793,Spania,Reus,Altele,"Centre Civic Ponent Avinguda dels Països Catalans, 106, 43205 Reus",41.15136946,1.09807609
794,Spania,Sabadell,Altele,"Turul I: Centre Cívic de Can Llong-Castellarnau, Av.  dEstrasburg, 82, 08206 Sabadell Turul II: Centro Cívico de la Creu Alta-Cal Balsach, Carretera de Prats de Lluçanès, 2, 08208  Sabadell",41.56159261,2.08313611
795,Spania,Tarragona,Altele,"Hotel Tarraco Park, Carretera de Valencia, 206, 43006, Tarragona",41.11489117,1.21851805
796,Spania,Tarragona,Altele,"Hotel Tarraco Park, Carretera de Valencia, 206, 43006, Tarragona",41.11489117,1.21851805
797,Spania,Tarrega,Altele,"Centre La Solana 2, Carrer de lHospital, 2, bajos, 25300 Tàrrega.",41.64526491,1.13820758
798,Spania,Tortosa,Altele,"Espai Sant Joan, Plaza de Sant Joan, 4, 43500, Tortosa",40.81710623,0.5112466
799,Spania,Vilanova i la Geltru,Altele,"Espai de la Tecnología ""Neapolis"", Rambla de lExposició, 59, 08800, Vilanova i la Geltrú",41.22326658,1.73344716
800,Spania,Palma de Mallorca,Altele,"Hotel Isla Mallorca & Spa,  Carrer de Pilar Juncosa, 7,  07014, Palma",39.56937483,2.62781694
801,Spania,Pollença,Altele,"Fundació Rotger Villalonga, sala  FRV, C/ Philip Newman, 11,  07460, Pollença",39.87634568,3.01887923
802,Spania,Ibiza,Altele,"Parroquia Santa Cruz Ibiza,  C/dArago, 16 bajo, 07800, Ibiza",38.90915445,1.43026281
803,Spania,Ibiza,Altele,"Club Parroquial, Carrer de Jorge  Manrique, 1, 07849, Santa Eularia des Riu",38.99123413,1.53720987
804,Spania,Bilbao,Altele,"Calle San Vicente, 6, cod poștal 48001, Bilbao",43.26396828,-2.92786067
805,Spania,Bilbao,Altele,"Calle San Vicente, 6, cod poștal 48001, Bilbao",43.2638564,-2.92789538
806,Spania,Bilbao,Altele,"Calle San Vicente, 6, cod poștal 48001, Bilbao",43.26403049,-2.92777672
807,Spania,Burgos,Altele,"Calle Madrid, 25, cod poștal 09002, Burgos",42.33550256,-3.69990968
808,Spania,Burgos,Altele,"Calle Madrid, 25, cod poștal 09002, Burgos",42.33554286,-3.69981906
809,Spania,Calahorra,Altele,"Calle Maestro Falla, 13, cod poștal 26500, Calahorra",42.30423672,-1.96776108
810,Spania,Gijon,Altele,"Av. De Oviedo, 15, cod poștal 33211, Gijon",43.52204961,-5.68235061
811,Spania,Logrono,Altele,"Calle San Millan, 25,cod poștal 26071, Logrono",42.45954059,-2.45658426
812,Spania,Logrono,Altele,"Calle San Millan, 25,cod poștal 26071, Logrono",42.45961108,-2.45689511
813,Spania,Logrono,Altele,"Calle San Millan, 25,cod poștal 26071, Logrono",42.45972737,-2.45721885
814,Spania,Oviedo,Altele,"Plaza de Los Ferroviaros, 1, cod poștal 33003, Oviedo",43.3663721,-5.85490661
815,Spania,Pamplona,Altele,"Calle Comunidad de Navarra, 2, cod poștal 31010, Baranain",42.80473575,-1.68893919
816,Spania,Pamplona,Altele,"Calle Comunidad de Navarra, 2, cod poștal 31010, Baranain",42.80479239,-1.68854217
817,Spania,San Sebastian,Altele,"Calle Antonio Maria Labaien, 1, cod poștal 20009, San Sebastian",43.30749069,-1.98322843
818,Spania,Santander,Altele,"Av. De Parayas, 2A, cod poștal 39011, Santander",43.45243752,-3.82834427
819,Spania,Santander,Altele,"Av. De Parayas, 2A, cod poștal 39011, Santander",43.4523614,-3.82844272
820,Spania,Vigo,Altele,"Av. De la Florida, 60, cod poștal 36210, Vigo",42.21570018,-8.74042435
821,Spania,Sevilla,Consulat General,"Avenida Manuel Siurot, 30, 41013, Sevilla",37.36318913,-5.98294548
822,Spania,Sevilla,Altele,"Hotel Occidental Sevilla Viapol  - calle Balbino Marron 9, 41018, Sevilla",37.3785857,-5.9778533
823,Spania,Cadiz,Altele,"Casa Iberoamerica de Cadiz, sala Florencia del Castillo - calle  Concepcion Arenal s/n, 11006,  Cadiz",36.52702368,-6.2911959
824,Spania,Almonte,Altele,"Casa de Cultura de Almonte - calle Luis Benjumea 5, 21730, Almonte",37.26206484,-6.51580138
825,Spania,Rociana del Condado,Altele,"Casa de Cultură Odon Betanzos  Palacios - calle San Bartolome,  5, 21720, Rociana del Condado",37.30793543,-6.5979734
826,Spania,Palos de la Frontera,Altele,"Club Social Plus Ultra - calle Andalucia, 18, 21810, Palos de  la Frontera",37.22879345,-6.89491529
827,Spania,Moguer,Altele,"Casa Natal de Juan Ramon  Jimenez - calle Ribera, 2, 21800, Moguer",37.27712625,-6.84289386
828,Spania,Huelva,Altele,"Asociația de vecini Noua Huelva  - calle Alonso de Ercilla, nr. 21,  21005, Huelva",37.26978346,-6.93436353
829,Spania,Lepe,Altele,"Alcaldia de Blas Infante - calle Pio XII, 2, 21440 Lepe",37.25321654,-7.19871107
830,Spania,Malaga,Altele,"Clădirea Tabacalera, modulul 3, parter - calle Concejal Muñoz  Cervan 3, carretera de Cadiz,  29004, Malaga",36.69853163,-4.44003589
831,Spania,Malaga,Altele,"Clădirea Tabacalera, modulul 3, parter - calle Concejal Muñoz  Cervan 3, carretera de Cadiz,  29004, Malaga",36.69843661,-4.4399015
832,Spania,Marbella,Altele,"Hotel NH Marbella - avda.  Conde Rudi, 531, 29600, Marbella",36.51108442,-4.9081739
833,Spania,Manilva,Altele,"Sala de plen, Primăria Manilva -  calle Doctor Alvarez Leida, 8, 29691 Manilva",36.37695122,-5.24903478
834,Spania,Cordoba,Altele,"Sala de Presă, Primăria Cordoba, parter - calle Capitulares 1, Centro, 14002, Cordoba",37.88511277,-4.77630098
835,Spania,Almendralejo,Altele,"Centru Civic, sala 1 - calle  Merida 11, 06200, Almendralejo",38.68531144,-6.40675478
836,Spania,Merida,Altele,"Hotel Ilunion Las Lomas - av.  Reina Sofia, 78, 06800, Merida",38.9286742,-6.3169955
837,Spania ,Zaragoza,Altele,"Cámara Oficial de Comercio e  Industria de Zaragoza, Paseo  Isabel la Católica nr.2, 50009  Zaragoza",41.63746472,-0.89878978
838,Spania ,Zaragoza,Altele,"Cámara Oficial de Comercio e  Industria de Zaragoza, Paseo  Isabel la Católica nr.2, 50009  Zaragoza",41.63746472,-0.89878978
839,Spania ,Zaragoza,Altele,"Cámara Oficial de Comercio e  Industria de Zaragoza, Paseo  Isabel la Católica nr.2, 50009  Zaragoza",41.63746472,-0.89878978
840,Spania ,Zaragoza,Altele,"Cámara Oficial de Comercio e  Industria de Zaragoza, Paseo  Isabel la Católica nr.2, 50009  Zaragoza",41.63746472,-0.89878978
841,Spania ,Alcañiz,Altele,"Hotel Ciudad de Alcañiz,  Avenida Zaragoza, nr. 88, 44600 Alcañiz, Teruel",41.05303479,-0.15365321
842,Spania ,Calatayud,Altele,"Ayuntamiento de Calatayud,  Plaza Joaquin Costa nr.14,  50300, Calatayud, Zaragoza",41.35326387,-1.64195399
843,Spania,Ciudad Real,Consulat,"Calle de la Mata, 37, cod poștal  13004, Ciudad Real, provincia Ciudad Real",38.98599559,-3.92102028
844,Spania,Albacete,Altele,"Centro Sociocultural Casa Carretas: Plaza Mateo Villora, 1, et. 1, cod poștal 02001, Albacete, provincia Albacete",38.99259716,-1.85222822
845,Spania,Alcázar de San Juan,Altele,"Centro Cívico: Plaza de España s/n, cod poștal 13600, Alcázar de San Juan, provincia Ciudad Real",39.38977165,-3.21068262
846,Spania,Cuenca,Altele,"Centro Social Municipal  Buenavista: Calle San Leopoldo, 1, cod poștal 16002, Cuenca, provincia Cuenca",40.07347612,-2.14597849
847,Spania,Madridejos,Altele,"Museo del Azafrán: Calle San Francisco, 17, cod poștal 45710, Madridejos, provincia Toledo",39.46658217,-3.53454142
848,Spania,Ocaña,Altele,"Centro Polivalente de Reuniones Juan Pablo II: Calle Cisneros, 3, cod poștal 45300, Ocaña, provincia Toledo",39.95952404,-3.49991868
849,Spania,Quintanar de la Orden,Altele,"Centro Cultural Príncipe de  Asturias: Calle Ramón y Cajal, 8, cod poștal 45800, Quintanar de la Orden, provincia Toledo",39.34404506,-1.92804828
850,Spania,Quintanar del Rey,Altele,"Centro Cultural Alfonso Sáiz López, Calle Cura, 22, cod poștal 16220, Quintanar del Rey, provincia Cuenca",39.34398167,-1.92804232
851,Spania,Talavera de la Reina,Altele,"Cámara Comercio: Plaza del  Pan, 11, cod poștal 45600,  Talavera de la Reina, provincia  Toledo",39.95814414,-4.83213006
852,Spania,Tarancón,Altele,"Casa de las Asociaciones: Plaza de la Constitución, 1, cod poștal  16400, Tarancón, provincia Cuenca",40.01153835,-3.00440525
853,Spania,Toledo,Altele,"Centro Cívico de Santa Bárbara:  Calle Ciudadano, 7, cod poștal  45006, Toledo, provincia Toledo",39.86097751,-4.00238976
854,Spania,Tomelloso,Altele,"Antiguo Hangar de la Estación de Ferrocarril: Calle Airén, 8, cod poștal 13700, Tomelloso, provincia Ciudad Real",39.14806364,-3.02898149
855,Spania,Villarrobledo,Altele,"Museo-Biblioteca Municipal: Calle de la Carrasca, 29, cod poștal 02600, Villarrobledo, provincia Albacete",39.26236026,-2.60482676
856,Spania,Almeria,Consulat,"Carretera Huercal de Almeria,  46, cod poștal 04009, Almeria, Provincia Almeria",36.8614702,-2.44463956
857,Spania,Almeria,Altele,"Hotel Costasol, Paseo de Almeria, 58, cod poștal 04001, Almeria, Provincia Almeria",36.8614702,-2.44463956
858,Spania,Roquetas de Mar,Altele,"Escuela Municipal de Musica,  Danza y Teatro, Calle Eduardo  Fajardo, 55, cod poștal 04720, El  Parador de las Hortichuelas,  Provincia Almeria",36.80084803,-2.59778527
859,Spania,Roquetas de Mar,Altele,"Escuela Municipal de Musica,  Danza y Teatro, Calle Eduardo  Fajardo, 55, cod poștal 04720, El  Parador de las Hortichuelas,  Provincia Almeria",36.80068868,-2.59795395
860,Spania,Roquetas de Mar,Altele,"Escuela Municipal de Musica,  Danza y Teatro, Calle Eduardo  Fajardo, 55, cod poștal 04720, El  Parador de las Hortichuelas,  Provincia Almeria",36.80070992,-2.5976518
861,Spania,El Ejido,Altele,"Centro de Usos Múltiples de  Santo Domingo, Avenida del  Oasis, 102, cod poștal 04700,  El  Ejido, Provincia Almeria",36.77066255,-2.80089746
862,Spania,El Ejido,Altele,"Centro de Usos Múltiples de  Santo Domingo, Avenida del  Oasis, 102, cod poștal 04700,  El  Ejido, Provincia Almeria",36.77066255,-2.80089746
863,Spania,Motril,Altele,"Centro Intercultural, Calle  Galicia, 10, bajo B, cod poștal  18600, Motril, Provincia  Granada",36.74799548,-3.5087774
864,Spania,Granada,Altele,"Centro Cívico Zaidín, Calle Torre de las Damas, s/n, cod poștal 18007, Granada, Provincia Granada",37.15798329,-3.59576153
865,Spania,Lorca,Altele,"Hotel Amaltea, Carretera de  Granada, 147, cod poștal 30813, Lorca, Provincia Murcia",37.65512567,-1.71107894
866,Spania,Murcia,Altele,"Hotel Occidental Murcia Agalia,  Avenida Arquitecto Miguel  Ángel Beloqui, 7, cod poștal  30006, Murcia, Provincia Murcia",37.9917169,-1.11740297
867,Spania,Ubeda,Altele,"Hotel Ciudad de Ubeda, Calle Cronista Juan de la Torre, 5, cod poștal 23400, Ubeda, Provincia Jaen",38.01716348,-3.38284918
868,Spania,Castellon,Altele,"Castellon de la Plana, Avenida Hermanos Bou, 79, 12003",39.98204829,-0.02500982
869,Spania,Castellon,Altele,"Castellon de la Plana, Avenida Hermanos Bou, 79, 12003",39.98202873,-0.02462811
870,Spania,Castellon,Altele,"Castellon de la Plana, Avenida Hermanos Bou, 79, 12003",39.98181233,-0.02449283
871,Spania,Almazora,Altele,"Almazora, Calle Instituto, 2, 12550",39.95285668,-0.06432536
872,Spania,Onda,Altele,"Onda, Calle la Cosa, 2, 12200",39.96528702,-0.26859073
873,Spania,Oropresa del Mar,Altele,"Oropresa del Mar, Carrer la Carta Pobla, 2, 12594",40.09343168,0.13508957
874,Spania,Peniscola,Altele,"Peniscola, Carrer del Mestre Bayarri, 2, 12598",40.36019177,0.39990964
875,Spania,Vila-Real,Altele,"Vila-real, Av. Arcadi Garcia Sanz, 1, 12540",39.92774811,-0.10548135
876,Spania,Vinaros,Altele,"Vinaros, Av. de la Llibertat, 1, 12500",40.47189408,0.47225847
877,Spania,Gandia,Altele,"Gandia, Plaça de les Xocolateres, 6, 46701",38.97114007,-0.18326644
878,Spania,Paterna,Altele,"Paterna, Carrer de Leonardo da Vinci, s/n, 46980",39.54587171,-0.45498408
879,Spania,Almussafes,Altele,"Almussafes, Av. de la Foia, 46440",39.3081802,-0.4158598
880,Spania,Valencia,Consulat General,"Valencia, Plaza de Alfonso el Magnánimo, 12, 46003",39.47208051,-0.3710193
881,Spania,Valencia,Consulat General,"Valencia, Plaza de Alfonso el Magnánimo, 12, 46003",39.47199723,-0.3710869
882,Spania,Valencia,Altele,"Valencia, Av. d`Amado Granell Mesado, 48, 46013",39.45586847,-0.36327675
883,Spania,Xativa,Altele,"Xàtiva, Carrer de Sant Agusti, 9, 46800",38.9865058,-0.5212762
884,Spania,Alicante,Altele,"Alicante, C. San Fernando, 16, 03002",38.3442555,-0.4821195
885,Spania,Elche,Altele,"Elche, C. Miguel Servet, 25, 03203",38.2947319,-0.6206946
886,Spania,Benidorm,Altele,"Benidorm, C. del Actor Luis Prendes, 4, 03502",38.53153101,-0.16381893
887,Spania,Torrevieja,Altele,"Torrevieja, Rbla. Juan Mateo García, 19, 03181",37.97695341,-0.67967256
888,Sri Lanka,Colombo,Ambasadă,"25/1 Horton Place, Colombo  700",6.9117435,79.8647537
889,SUA,Washington DC,Ambasadă,1680 Wisconsin Ave NW  Washington DC 20007,38.9129636,-77.0665721
890,SUA,"Old Hickory, TN",Altele,4112 Union Street Old Hickory  TN 37138,36.22453792,-86.62673045
891,SUA,"Charlotte, NC",Altele,"4300 McKee Rd Charlotte, NC  28270",35.06879387,-80.75837371
892,SUA,"Cleveland, OH",Altele,"1367 West 65th Street,  Cleveland, OH 44102-2109",41.48481172,-81.73003221
893,SUA,"Norfolk, VA",Altele,"520 E Plume St, Norfolk, VA  23510",36.847,-76.28732
894,SUA,"Easley, SC",Altele,"104 W 6th Avenue, Easley, SC,  29640",34.82254662,-82.60569682
895,SUA,"Potomac, MD",Altele,"9111 River Rd, Potomac, MD  20854",39.00549717,-77.18641702
896,SUA,Chicago,Consulat general,"737 N Michigan Ave, suite 2300,  Chicago, IL, 60611",41.89598233,-87.62395516
897,SUA,Chicago,Altele,"6500 N Western, Chicago, IL,  60645",42.00050672,-87.69028336
898,SUA,Chicago,Altele,"5410 N Newland Avenue, IL,  60656",41.97900605,-87.80010817
899,SUA,Chicago,Altele,"5406 N Kedzie Ave, Chicago, IL  60625",41.97979154,-87.70910107
900,SUA,Chicago,Altele,"5825 N Mozart Street, Chicago,  IL 60659",41.9872587,-87.7001329
901,SUA,Niles,Altele,"7280 N Caldwell Ave,Niles, IL,  60714",42.01405528,-87.79113864
902,SUA,Aurora,Altele,"3003 N Eola Rd, Aurora, IL,  60502",41.81794287,-88.23090027
903,SUA,Michigan,Altele,"31500 Ryan Road, Warren, MI,  48092",42.52432328,-83.06687285
904,SUA,Michigan,Altele,"46500 N Territorial Rd,  Plymouth, MI, 48170",42.378548,-83.50115289
905,SUA,Indiana,Altele,"5440 Fall Creek Rd,  Indianapolis, IN, 46226",39.85311606,-86.08567378
906,SUA,Minnesota,Altele,"350 5th Avenue North, South  Saint Paul, MN, 55075",44.89574349,-93.03934713
907,SUA,Missouri,Altele,"6420 Marmaduke Ave, St. Louis,  MO, 63139",38.61034382,-90.29683228
908,SUA,Los Angeles,Consulat General,"11766 Wilshire Blvd., apt. 200, cod poștal 90025, Los Angeles",34.04784087,-118.46198638
909,SUA,Anaheim,Altele,"1770 W Cerritos Avenue, cod poștal 92804, Anaheim",33.81021988,-117.94511137
910,SUA,Denver,Altele,"1555 Jay Street, Lakewood, cod poștal 80214",39.74167367,-105.06531948
911,SUA,Las Vegas,Altele,"1250 S Jones Blvd, Las Vegas, cod poștal  89146",36.15715517,-115.22305934
912,SUA,Phoenix,Altele,"Living Waters Romanian Church 3720 W. Sweetwater Ave., cod poștal 85029, Phoenix",33.60429556,-112.13906083
913,SUA,Portland,Altele,"5544 SE 128th Avenue, cod poștal 97236, Portland",45.48257282,-122.53023324
914,SUA,Sacramento,Altele,"5306 Walnut Avenue, Building  A, cod poștal 95841, Sacramento",38.66340258,-121.34536026
915,SUA,Salt Lake City,Altele,"4180 Emigration Canyon Road, cod poștal 84108, Salt Lake City",40.76452616,-111.78033464
916,SUA,San Diego,Altele,"1936 Quivira Way, cod poștal  92109, San Diego",32.7618528,-117.23373865
917,SUA,San Francisco,Altele,"26050 Kay Ave, cod poștal  94545, Hayward",37.6392825,-122.09799802
918,SUA,San Francisco,Altele,"14871 Bancroft Ave, San  Leandro, California",37.70832535,-122.13102568
919,SUA,Seattle,Altele,"6402 226th St SW, Mountlake  Terrace, WA 98043",47.7937096,-122.3198305
920,SUA,Miami,Consulat General,"Miami, 1101 Brickell Ave, suite N 600, FL 33131",25.76320901,-80.19091524
921,SUA,Dacula,Altele,"Dacula, 2875 Winder Highway, Georgia 30019",33.99226718,-83.88443029
922,SUA,Dallas,Altele,"Dallas, 2312 Dorrrington Dr., Texas 75228",32.80581871,-96.70827363
923,SUA,Fort Myers,Altele,"Fort Myers, 128811 Kenwood Ln, Unit 117, Florida, 33907",26.55545,-81.87544
924,SUA,Houston,Altele,"Houston, 318 Canino Rd., Texas 77076",29.87478896,-95.37962861
925,SUA,Jacksonville,Altele,"Jacksonville, 1875 Live Oak DR, Florida, 32246-2138",30.3110645,-81.54776295
926,SUA,Miramar,Altele,"Miramar, 1850 SE 60 Terrace, Florida, 33023",25.99408799,-80.20831826
927,SUA,Naples,Altele,"Naples, 798 109th Ave. N, Florida, 34108",26.27028298,-81.80572089
928,SUA,San Antonio,Altele,"San Antonio, 26347 Boerne  Stage Rd, Boerne Texas 78006",29.6919886,-98.67961647
929,SUA,Tampa,Altele,"Tampa, 7085 Pinnelas Park,  62nd Way N, Florida, 33781",27.83653582,-82.72087503
930,SUA,New York,Consulat General,"200 East, 38th Street, New York,  NY 10016 (cu intrarea pe 3rd Avenue)",40.74805987,-73.9761703
931,SUA,New York,Institut cultural român,"200 East, 38th Street, New York,  NY 10016 (cu intrarea pe 38th Street)",40.74805987,-73.9761703
932,SUA,Long Valley,Altele,"132 Califon Road, Long Valley,  NJ 07853",40.77830069,-74.85078798
933,SUA,Philadelphia,Altele,"723 N Bodine Street,  Philadelphia, PA 19123",39.9677305,-75.1414384
934,SUA,Queens,Altele,"90-34 139 Street, Jamaica, NY  11435",40.7004986,-73.81232619
935,SUA,Shelton,Altele,"183 Howe Avenue, Shelton, CT  6484",41.310747,-73.086972
936,SUA,Victor,Altele,"56 Andrews Street, Victor, NY  14564-1262",42.982267,-77.404916
937,SUA,Wakefield,Altele,"1 Audubon Road, Wakefield,  MA 01880",42.5141293,-71.0400132
938,SUA,West Lawn,Altele,"51 West Lawn Avenue, West  Lawn, PA 19609",40.326739,-75.989363
939,Suedia,Stockholm,Ambasadă,"Östermalmsgatan 36, 114 26, Stockholm",59.34283722,18.07219447
940,Suedia,Stockholm,Institut cultural român,"Skeppsbron 20, 111 30, Stockholm",59.32488175,18.07535472
941,Suedia,Göteborg,Altele,"Elite Park Avenue Hotel,  Kungsportsavenyn 36-38, 411  36 Göteborg",57.69835492,11.97846983
942,Suedia,Malmö,Altele,"Elite Plaza Hotel, Gustav Adolfs Torg 49, 201 80 Malmö",55.6032618,12.9993578
943,Suedia,Sölvesborg,Altele,"Tredenborgsvägen 16, 294 35 Sölvesborg",56.03957537,14.57733078
944,Suedia,Uppsala,Altele,"Träffpunkt, Storgatan 11, 753 31 Uppsala",59.86288136,17.64076714
945,Thailanda,Bangkok,Ambasadă,"3388/41 Sirinrat Office  Building, 12th floor, Rama IV  Road, Klong Tan, Khlong Toei,  Bangkok 10110",13.71678123,100.57054854
946,Tunisia ,Tunis,Secție Consulară,"4, Rue Essaheb Ibn Abbad,  Placette Reine Marie de  Roumanie, Cite Jardins, B.P.571004",36.82564964,10.18063857
947,Turcia,Ankara,Ambasadă,"Güvenevler Mahallesi, Farabi  Sokak No:27, 06690 Çankaya, Ankara",39.89748915,32.86061125
948,Turcia,Antalya,Altele,"Muratpașa Belediyesi Hizmet  Binasi, 1.Kat, Fener Mahallesi,  Tekelioǧlu Cad., No.63, 07160  Muratpașa/Antalya",36.85194953,30.75953859
949,Turcia,Istanbul,Consulat General,"Str. Yanarsu, nr. 42, Etiler, Beșiktaș, 34337",41.0867834,29.03483923
950,Turcia,Istanbul,Institut cultural român,"Str. Siraselviler, nr. 21, Taksim,  Beyoglu, 34433",41.03540165,28.98483243
951,Turcia,Izmir,Consulat General,"strada 1479, 9, cod poștal 35220, Alsancak, Izmir",38.43980921,27.14351614
952,Turkmenistan,Ashgabat,Ambasadă,"Str. Myati Kosayew nr. 122, 744000, Ashgabat",37.95192627,58.34912077
953,Ucraina,Kiev,Ambasadă,"str. Mihailo Kotsyubinsky nr. 8, cod poștal 01030, Kiev",50.44661898,30.50309711
954,Ucraina,Solotvino,Consulat,"str. Sportivna nr. 112, 90575, Solotvino",47.95310702,23.88830311
955,Ucraina,Cernăuți,Consulat General,"Str. Șkilna (Școlii). Nr. 16, CP  58000, Cernăuți, regiunea Cernăuți",48.29306052,25.94073354
956,Ungaria,Budapesta,Ambasadă,"Thokoly ut 72, 1146 Budapesta",47.5073164,19.0930482
957,Ungaria,Budapesta,Ambasadă,"Thokoly ut 72, 1146 Budapesta",47.5073164,19.0930482
958,Ungaria,Budapesta,Institut cultural român,"Izso u 5, 1146 Budapesta",47.5080926,19.0926251
959,Ungaria,Budapesta,Institut cultural român,"Izso u 5, 1146 Budapesta",47.5080926,19.0926251
960,Ungaria,Szeged,Consulat General,"Kelemen László utca 5, Szeged, 6720",46.251098,20.1481831
961,Ungaria,Gyula,Consulat General,"Munkácsy Mihály u.12, 5700 Gyula",46.6463972,21.2784925
962,Uruguay,Montevideo,Ambasadă,"Calle Echevarriarza, no. 3452, Pocitos, Montevideo, CP 11300",-34.9090776,-56.13705399
963,Uzbekistan,Tașkent,Ambasadă,"Strada Zanjirbog, nr. 44A, raion  Yakassaroy, Tașkent, cod poștal 100031",41.29697417,69.26443976
964,Republica Socialistă Vietnam,Hanoi,Ambasadă,"Str. Le Hong Phong, nr. 5, district Ba Dinh, Hanoi, cod poștal 100000",21.03325904,105.83731426
965,Zimbabwe,Harare,Ambasadă,"105 Simon Muzenda St., Harare",-17.82202892,31.05255155
